{
"type": "FeatureCollection",
"name": "glacier_zones",
"crs": { "type": "name", "properties": { "name": "urn:ogc:def:crs:EPSG::32633" } },
"features": [
{ "type": "Feature", "properties": { "zone_label": "NW", "zone_name": "NW Spitsbergen", "color": "#3d8673" }, "geometry": { "type": "Polygon", "coordinates": [ [ [ 421705.954577091499232, 8658787.893117979168892 ], [ 499069.109041825926397, 8686919.949286973103881 ], [ 494138.894778727320954, 8730945.744347063824534 ], [ 492587.460369704000186, 8749218.194053338840604 ], [ 489499.12715339649003, 8753014.044564515352249 ], [ 488212.573376894695684, 8760654.893138645216823 ], [ 488603.469343419768848, 8761416.813867907971144 ], [ 489107.094341869757045, 8761954.16706258058548 ], [ 489243.511483840935398, 8761938.47770775295794 ], [ 489330.614717050513718, 8761944.986958546563983 ], [ 489430.631014391139615, 8761967.576865771785378 ], [ 489456.901314180577174, 8761993.807296605780721 ], [ 489444.908693921752274, 8762010.650148674845695 ], [ 489447.918957852525637, 8762065.091329045593739 ], [ 489467.891009418468457, 8762074.298486253246665 ], [ 489487.905333789589349, 8762057.946506464853883 ], [ 489485.905683103599586, 8762011.309579527005553 ], [ 489543.551222597016022, 8762028.79613290168345 ], [ 489643.550383429741487, 8762099.842567633837461 ], [ 489733.891056897933595, 8762225.665780898183584 ], [ 489830.67937816795893, 8762390.172156419605017 ], [ 489917.78589134151116, 8762545.053613035008311 ], [ 489937.218031870550476, 8762589.764969741925597 ], [ 489892.705773368827067, 8762623.718882566317916 ], [ 489847.897774187673349, 8762657.900023423135281 ], [ 489828.892427414073609, 8762684.394741453230381 ], [ 489801.894092454575002, 8762755.376309309154749 ], [ 489803.911355689284392, 8762800.450946643948555 ], [ 489824.889094601618126, 8762813.896725282073021 ], [ 489838.883009469893295, 8762811.662339316681027 ], [ 489785.381341168482322, 8763031.638184305280447 ], [ 489821.647580479795579, 8763299.991611491888762 ], [ 489836.155376073205844, 8763553.901619730517268 ], [ 489902.864656856807414, 8763724.684743529185653 ], [ 489937.699446081882343, 8764134.241499330848455 ], [ 489952.20704565331107, 8764322.748320108279586 ], [ 490075.525592977763154, 8764518.645187029615045 ], [ 490213.33839031989919, 8764685.421287393197417 ], [ 490289.194445822853595, 8764717.977694056928158 ], [ 490285.903995379456319, 8764721.240015996620059 ], [ 490277.549560911778826, 8764736.260958455502987 ], [ 490248.902587740449235, 8764787.937184678390622 ], [ 490269.909978560113814, 8764807.305307071655989 ], [ 490349.378272885107435, 8764790.83977977745235 ], [ 490581.796113438438624, 8765032.26590184122324 ], [ 490544.005789198214188, 8765032.328341905027628 ], [ 490284.001255026727449, 8764960.549631236121058 ], [ 490062.864820506423712, 8764876.907278945669532 ], [ 489871.622000702132937, 8764835.138623235747218 ], [ 489333.703371797630098, 8764829.126304579898715 ], [ 488837.745317175926175, 8764835.135613242164254 ], [ 488798.88178749679355, 8764845.082318184897304 ], [ 488690.088657466287259, 8764946.625995701178908 ], [ 488501.506092876952607, 8765309.304370630532503 ], [ 488320.163892913085874, 8765570.376741671934724 ], [ 488233.115978807327338, 8765831.587856715545058 ], [ 488218.605289690080099, 8766012.872886307537556 ], [ 488312.904830241401214, 8766194.249932235106826 ], [ 488457.97243842825992, 8766607.652719058096409 ], [ 488566.770037302921992, 8766883.338611625134945 ], [ 488559.532172922627069, 8767195.251472936943173 ], [ 488494.243846783880144, 8767463.612095249816775 ], [ 488378.189457070780918, 8767768.276879969984293 ], [ 488182.346265317697544, 8768188.892662815749645 ], [ 488059.036356479453389, 8768464.526528175920248 ], [ 487950.224491558154114, 8768696.726687533780932 ], [ 487652.838607233716175, 8769037.60805313102901 ], [ 487529.523807767778635, 8769175.453344421461225 ], [ 487376.611657901317813, 8769261.040882935747504 ], [ 487386.913344527012669, 8769267.968083739280701 ], [ 487475.905445037933532, 8769359.038964129984379 ], [ 487496.919881536567118, 8769384.387179730460048 ], [ 487506.919714461662807, 8769507.843432899564505 ], [ 487494.221835905511398, 8769527.280269021168351 ], [ 487507.752777319052257, 8769552.592291595414281 ], [ 487587.542155810457189, 8769755.712155152112246 ], [ 487645.569841640244704, 8770009.614056231454015 ], [ 487662.610107049637008, 8770084.561014575883746 ], [ 487276.731508329277858, 8770088.338738949969411 ], [ 487261.685835062293336, 8770229.015229402109981 ], [ 487222.622547240171116, 8770274.508351044729352 ], [ 487095.152691055787727, 8770397.596616899594665 ], [ 487075.349702141538728, 8770408.070926347747445 ], [ 487069.923713818076067, 8770400.3143479693681 ], [ 486995.160007428610697, 8770523.089144242927432 ], [ 486823.644109071290586, 8770808.955439494922757 ], [ 486802.331772908335552, 8770872.91369991004467 ], [ 486704.305726465885527, 8770879.428023379296064 ], [ 486448.393744286207948, 8770923.602356849238276 ], [ 486188.319549419276882, 8770802.461804023012519 ], [ 486102.378254834678955, 8770759.108785046264529 ], [ 486046.299755122628994, 8770706.050215581431985 ], [ 485978.3385239392519, 8770557.027094146236777 ], [ 485951.65926526725525, 8770478.081295296549797 ], [ 485940.286582111963071, 8770408.338501390069723 ], [ 485944.622557163413148, 8770130.70136196538806 ], [ 485954.221057678456418, 8770101.684430344030261 ], [ 485956.988130996411201, 8770093.951692814007401 ], [ 485949.915854004037101, 8769945.024755600839853 ], [ 485817.912057209177874, 8769789.814944138750434 ], [ 485791.929167175723705, 8769781.517136527225375 ], [ 485777.911365504260175, 8769802.214683644473553 ], [ 485688.914178896113299, 8769941.192982889711857 ], [ 485661.904174933035392, 8770017.291374692693353 ], [ 485642.645642772782594, 8770109.485164429992437 ], [ 485634.760932629287709, 8770135.02468859963119 ], [ 485565.703994917392265, 8770181.029096344485879 ], [ 485481.18336633965373, 8770208.354797033593059 ], [ 485461.454538637364749, 8770218.854069720953703 ], [ 485424.53694503911538, 8770369.186956290155649 ], [ 485475.637166726402938, 8770428.1917793918401 ], [ 485517.120332033140585, 8770497.467750065028667 ], [ 485518.154007617675234, 8770547.794572466984391 ], [ 485491.116960115614347, 8770697.898818140849471 ], [ 485416.315252024098299, 8770704.801779989153147 ], [ 485355.858297285507433, 8770685.868359027430415 ], [ 485295.961808114021551, 8770687.468636807054281 ], [ 485291.339124704420101, 8770707.056214477866888 ], [ 485378.159394284361042, 8770800.570506596937776 ], [ 485539.083434978150763, 8770842.105754440650344 ], [ 485578.89858479204122, 8770831.48590350523591 ], [ 485648.671097081096377, 8770824.762344913557172 ], [ 485955.211949654563796, 8770897.827643780037761 ], [ 486085.182611204741988, 8770894.690887382254004 ], [ 486145.532799279899336, 8770913.660732222720981 ], [ 486216.357039950613398, 8770952.049928477033973 ], [ 486333.58189271192532, 8771064.044333601370454 ], [ 486339.405747889657505, 8771103.938548129051924 ], [ 486288.13973997120047, 8771285.878364190459251 ], [ 486273.779715042561293, 8771320.972604116424918 ], [ 486151.688660103769507, 8771463.744871834293008 ], [ 486078.364021570829209, 8771545.374456238001585 ], [ 486052.182061988452915, 8771735.638092407956719 ], [ 486052.46018959605135, 8771750.926310606300831 ], [ 486022.93244388961466, 8771771.684067314490676 ], [ 485875.262785217142664, 8771841.552699802443385 ], [ 485759.378365533950273, 8771841.983756059780717 ], [ 485708.721580283599906, 8771813.545746564865112 ], [ 485670.130332804576028, 8771879.6208590362221 ], [ 485641.909286423469894, 8771970.244381254538894 ], [ 485589.235057488898747, 8772086.600767374038696 ], [ 485550.084965097950771, 8772127.126180255785584 ], [ 485520.472147524124011, 8772142.762743055820465 ], [ 485450.460367361723911, 8772144.47448300011456 ], [ 485399.636029112734832, 8772105.001087112352252 ], [ 485359.647812810144387, 8772106.365087797865272 ], [ 485330.01557321153814, 8772122.006446389481425 ], [ 485315.568170901678968, 8772151.978900017216802 ], [ 485273.556886453530751, 8772298.136257199570537 ], [ 485289.86626984376926, 8772362.68038609623909 ], [ 485325.961689711431973, 8772417.614767380058765 ], [ 485386.982775201962795, 8772466.229052735492587 ], [ 485441.967881058109924, 8772464.689734444022179 ], [ 485520.980696962680668, 8772445.125236602500081 ], [ 485660.73833015433047, 8772467.611268203705549 ], [ 485725.049608351197094, 8772531.941831583157182 ], [ 485786.259938685747329, 8772739.960962001234293 ], [ 485812.73561438388424, 8772934.204522348940372 ], [ 485708.063906829629559, 8773013.537569859996438 ], [ 485653.161045840650331, 8773020.087161036208272 ], [ 485577.725826285372023, 8772997.07626392506063 ], [ 485402.449923196632881, 8772985.509777650237083 ], [ 485167.34189535205951, 8772975.575099546462297 ], [ 485057.435485274239909, 8772983.703073063865304 ], [ 484975.948678406712133, 8772909.680995607748628 ], [ 484875.072869670984801, 8772867.488050006330013 ], [ 484774.884236674872227, 8772859.338011054322124 ], [ 484649.437461256980896, 8772836.998146140947938 ], [ 484626.465349469450302, 8772818.530958611518145 ], [ 484652.116883138485719, 8772721.999205444008112 ], [ 484640.876924815878738, 8772693.229452444240451 ], [ 484550.481870189192705, 8772639.771081058308482 ], [ 484454.948373085062485, 8772616.297057026997209 ], [ 484435.138546261528973, 8772621.679849782958627 ], [ 484376.533360373869073, 8772693.070458199828863 ], [ 484171.566136897832621, 8772698.236091937869787 ], [ 484111.758070114767179, 8772704.135103302076459 ], [ 484107.315091923752334, 8772733.993997080251575 ], [ 484118.156011396902613, 8772773.814354054629803 ], [ 484166.512967845133971, 8772938.502166228368878 ], [ 484182.141100291861221, 8772972.346185302361846 ], [ 484227.213415029167663, 8772976.906555460765958 ], [ 484397.381554600957315, 8772983.236964695155621 ], [ 484467.345273268409073, 8772981.465793140232563 ], [ 484739.17747494840296, 8773070.175216648727655 ], [ 484814.718130778928753, 8773099.049667343497276 ], [ 484946.72784827084979, 8773195.328233517706394 ], [ 485018.316255143494345, 8773274.4905164539814 ], [ 485034.315348165924661, 8773323.743573838844895 ], [ 485025.528745998279192, 8773384.346017308533192 ], [ 484993.244510757562239, 8773514.9933368768543 ], [ 484963.030766076641157, 8773558.332000304013491 ], [ 484833.164883546647616, 8773627.107665287330747 ], [ 484855.586922873510048, 8773633.307301791384816 ], [ 484796.607883764547296, 8773684.257040973752737 ], [ 484746.435580568446312, 8773675.497631402686238 ], [ 484686.903739918139763, 8773696.657658789306879 ], [ 484573.398891654971521, 8773773.853424204513431 ], [ 484524.536358948971611, 8773830.71780620701611 ], [ 484450.319292544270866, 8773970.387456743046641 ], [ 484350.229724624659866, 8774109.606979863718152 ], [ 484276.63062671921216, 8774181.304476195946336 ], [ 484246.740289111156017, 8774186.706977523863316 ], [ 484086.390759054920636, 8774170.004393143579364 ], [ 484075.059787932026666, 8774160.6624496858567 ], [ 483985.131969487527385, 8774207.808280196040869 ], [ 483930.986652124673128, 8774302.491930617019534 ], [ 483944.451882902299985, 8774353.661727026104927 ], [ 483927.810680677881464, 8774363.699930615723133 ], [ 483953.387796931725461, 8774578.010196214541793 ], [ 483919.39013716444606, 8774768.090609284117818 ], [ 483831.698316931724548, 8774774.59013688005507 ], [ 483852.775535436288919, 8774730.895572943612933 ], [ 483842.299107858096249, 8774705.471610581502318 ], [ 483792.512874060194008, 8774717.172411343082786 ], [ 483722.9891565371654, 8774738.510452123358846 ], [ 483568.080444466962945, 8774746.472049873322248 ], [ 483517.632027910207398, 8774722.474733799695969 ], [ 483477.64464556571329, 8774723.900546887889504 ], [ 483439.802042507508304, 8774776.197179572656751 ], [ 483392.179428528994322, 8774776.276861099526286 ], [ 483393.672499001491815, 8774775.252267172560096 ], [ 483393.129562943591736, 8774750.591762136667967 ], [ 483186.487480256648269, 8774669.889013431966305 ], [ 483065.860043322318234, 8774638.270012492313981 ], [ 482970.702499775681645, 8774630.198766412213445 ], [ 482960.433218013553414, 8774615.048145037144423 ], [ 482882.911522291426081, 8774491.772935209795833 ], [ 482794.793647714774124, 8774338.847041634842753 ], [ 482769.247184359177481, 8774309.399655787274241 ], [ 482696.576002271962352, 8774232.055486792698503 ], [ 482606.377389807254076, 8774172.820576630532742 ], [ 482586.286089810542762, 8774167.968284508213401 ], [ 482579.70916421234142, 8774186.478031150996685 ], [ 482503.491379250248428, 8774045.794609634205699 ], [ 482479.431480425177142, 8774045.799721671268344 ], [ 482202.725949802901596, 8774117.943308439105749 ], [ 482034.314115440880414, 8774117.918191641569138 ], [ 481829.799932739406358, 8774033.72459171526134 ], [ 481697.443631552334409, 8773949.501050347462296 ], [ 481541.059697234712075, 8773853.259065710008144 ], [ 481336.529689678514842, 8773769.034304650500417 ], [ 481332.155043721140828, 8773769.100189428776503 ], [ 481108.606773598236032, 8773439.63101552054286 ], [ 480688.842428303789347, 8773082.767540002241731 ], [ 480248.090435823425651, 8773019.833423599600792 ], [ 479765.361956774955615, 8773061.772734263911843 ], [ 479261.644295674050227, 8773271.688219603151083 ], [ 478527.066758930159267, 8773649.543706530705094 ], [ 478044.332518403127324, 8773796.417606465518475 ], [ 477372.728674862650223, 8774300.106237564235926 ], [ 477183.834147102374118, 8775097.693633897230029 ], [ 477078.889659142994788, 8775853.235715199261904 ], [ 477036.915928259433713, 8776293.942199466750026 ], [ 477058.367132187820971, 8776332.614086426794529 ], [ 477041.643127402465325, 8776355.585039168596268 ], [ 477058.348153860075399, 8776673.193184135481715 ], [ 477065.707016266242135, 8776812.815630661323667 ], [ 477258.185825922526419, 8777161.670178150758147 ], [ 477402.556753137498163, 8777618.817902421578765 ], [ 477534.893456100544427, 8777871.473970141261816 ], [ 477691.282682023069356, 8778112.099208816885948 ], [ 477901.440991845622193, 8778464.299892606213689 ], [ 477739.032801774155814, 8778795.961109118536115 ], [ 477603.684618762286846, 8779086.967887084931135 ], [ 477515.728215648094192, 8779377.907446008175611 ], [ 477495.417380908795167, 8779905.720669250935316 ], [ 477495.422392536012921, 8780115.581501958891749 ], [ 477522.937408273399342, 8780150.242378422990441 ], [ 477524.80605061625829, 8780212.161913592368364 ], [ 477541.931222126528155, 8780344.798859141767025 ], [ 477589.01022333605215, 8780438.937392931431532 ], [ 477644.638960552576464, 8780653.034148830920458 ], [ 477631.803211103368085, 8780807.090451383963227 ], [ 477580.449856494204141, 8781042.442837703973055 ], [ 477554.757542158069555, 8781273.534491999074817 ], [ 477537.647452753095422, 8781547.447189630940557 ], [ 477482.010700886312407, 8781761.450274398550391 ], [ 477477.727040196361486, 8782116.730103494599462 ], [ 477511.963493699964602, 8782253.630153216421604 ], [ 477559.050554521323647, 8782313.607966031879187 ], [ 477670.316216278006323, 8782465.965469278395176 ], [ 477670.327948241261765, 8782620.012030132114887 ], [ 477636.077572957437951, 8783005.193284075707197 ], [ 477597.559209676168393, 8783214.862481940537691 ], [ 477661.756634615361691, 8783377.564676595851779 ], [ 477781.591955887677614, 8783608.695633901283145 ], [ 477880.046102648659144, 8783835.533764880150557 ], [ 477965.625634779396933, 8784019.521654613316059 ], [ 478046.959563111071475, 8784139.405034687370062 ], [ 478063.075335926259868, 8784155.972947373986244 ], [ 477779.205106968351174, 8784156.051063131541014 ], [ 477556.434425802552141, 8784164.900387167930603 ], [ 477467.32359005784383, 8784173.787334144115448 ], [ 477220.884480792796239, 8784285.160844856873155 ], [ 477221.031872588966507, 8784285.15811181627214 ], [ 477246.492302981030662, 8784304.22134692966938 ], [ 477237.052941853005905, 8784335.875603767111897 ], [ 476992.086406722897664, 8784335.304407520219684 ], [ 476942.294287845783401, 8784346.507930424064398 ], [ 476838.227760815352667, 8784393.564129572361708 ], [ 476749.277277965680696, 8784445.478047939017415 ], [ 476645.873008489084896, 8784523.236586263403296 ], [ 476576.723716111970134, 8784564.628627322614193 ], [ 476546.823801713413559, 8784570.334223078563809 ], [ 476506.770086185191758, 8784531.805866498500109 ], [ 476362.386239453742746, 8784681.70526759326458 ], [ 476308.93048593896674, 8784753.062695786356926 ], [ 476095.063145009567961, 8784824.297704165801406 ], [ 475899.026903319405392, 8784859.944772118702531 ], [ 475783.187009555811528, 8784886.671317882835865 ], [ 475701.354384982492775, 8785023.027680940926075 ], [ 475675.903161200578324, 8785019.847822709009051 ], [ 475586.760380076244473, 8785061.693132212385535 ], [ 475552.396617841848638, 8785097.206199143081903 ], [ 475478.24502549204044, 8785138.761127784848213 ], [ 475384.02253064524848, 8785176.369293445721269 ], [ 475259.414279463875573, 8785194.279712522402406 ], [ 475170.810005881183315, 8785219.846523631364107 ], [ 475126.954521086707246, 8785246.29834296181798 ], [ 474909.171356414910406, 8785419.408814534544945 ], [ 474735.52058605273487, 8785497.87747760117054 ], [ 474526.996508351410739, 8785577.094594057649374 ], [ 474512.171975097327959, 8785592.807933066040277 ], [ 474493.281468199915253, 8785652.813124215230346 ], [ 474522.189288089924958, 8785825.915347510948777 ], [ 474549.113568914181087, 8785925.045811606571078 ], [ 474580.692946953233331, 8785999.297538889572024 ], [ 474624.403594957548194, 8786183.258491391316056 ], [ 474613.767128439445514, 8786398.932344200089574 ], [ 474632.872698191786185, 8786598.696820471435785 ], [ 474695.484727058501448, 8786663.825181877240539 ], [ 474780.047288728412241, 8786729.397907299920917 ], [ 474787.196406804723665, 8786815.320498360320926 ], [ 474763.481826780829579, 8786880.556105330586433 ], [ 474698.299657505587675, 8786939.726217655465007 ], [ 474630.839742497366387, 8786993.142102906480432 ], [ 474598.607402803725563, 8787084.903169773519039 ], [ 474551.504675084492192, 8787274.988811070099473 ], [ 475205.380882488097996, 8793973.471531596034765 ], [ 478618.475964503071737, 8807950.036135517060757 ], [ 471011.234903184231371, 8840914.747401230037212 ], [ 488399.214471911953297, 8865185.468882579356432 ], [ 439495.521934865333606, 8881124.450153913348913 ], [ 381173.340464757871814, 8859389.475693004205823 ], [ 375377.347275181964505, 8791648.805289836600423 ], [ 421705.954577091499232, 8658787.893117979168892 ] ] ] } },
{ "type": "Feature", "properties": { "zone_label": "N", "zone_name": "N Spitsbergen", "color": "#174940" }, "geometry": { "type": "Polygon", "coordinates": [ [ [ 523626.403859054145869, 8704720.889359509572387 ], [ 531165.400329141528346, 8720522.978345746174455 ], [ 534317.330279910587706, 8733960.153399024158716 ], [ 532175.793912170222029, 8745010.321885567158461 ], [ 532518.938162967562675, 8745966.966463547199965 ], [ 533600.362468510633335, 8745925.373221026733518 ], [ 533881.116855524247512, 8747020.408365875482559 ], [ 528873.649431066471152, 8752890.652791354805231 ], [ 528554.831312322872691, 8756085.16322292946279 ], [ 530051.134925176622346, 8762070.377674344927073 ], [ 511567.426349567133002, 8820947.542793983593583 ], [ 503993.097271638805978, 8862852.073477678000927 ], [ 488399.214471911953297, 8865185.468882579356432 ], [ 471011.234903184231371, 8840914.747401230037212 ], [ 478618.475964503071737, 8807950.036135517060757 ], [ 475205.380882488097996, 8793973.471531596034765 ], [ 474551.504675084492192, 8787274.988811070099473 ], [ 474598.607402803725563, 8787084.903169773519039 ], [ 474630.839742497366387, 8786993.142102906480432 ], [ 474698.299657505587675, 8786939.726217655465007 ], [ 474763.481826780829579, 8786880.556105330586433 ], [ 474787.196406804723665, 8786815.320498360320926 ], [ 474780.047288728412241, 8786729.397907299920917 ], [ 474695.484727058501448, 8786663.825181877240539 ], [ 474632.872698191786185, 8786598.696820471435785 ], [ 474613.767128439445514, 8786398.932344200089574 ], [ 474624.403594957548194, 8786183.258491391316056 ], [ 474580.692946953233331, 8785999.297538889572024 ], [ 474549.113568914181087, 8785925.045811606571078 ], [ 474522.189288089924958, 8785825.915347510948777 ], [ 474493.281468199915253, 8785652.813124215230346 ], [ 474512.171975097327959, 8785592.807933066040277 ], [ 474526.996508351410739, 8785577.094594057649374 ], [ 474735.52058605273487, 8785497.87747760117054 ], [ 474909.171356414910406, 8785419.408814534544945 ], [ 475126.954521086707246, 8785246.29834296181798 ], [ 475170.810005881183315, 8785219.846523631364107 ], [ 475259.414279463875573, 8785194.279712522402406 ], [ 475384.02253064524848, 8785176.369293445721269 ], [ 475478.24502549204044, 8785138.761127784848213 ], [ 475552.396617841848638, 8785097.206199143081903 ], [ 475586.760380076244473, 8785061.693132212385535 ], [ 475675.903161200578324, 8785019.847822709009051 ], [ 475701.354384982492775, 8785023.027680940926075 ], [ 475783.187009555811528, 8784886.671317882835865 ], [ 475899.026903319405392, 8784859.944772118702531 ], [ 476095.063145009567961, 8784824.297704165801406 ], [ 476308.93048593896674, 8784753.062695786356926 ], [ 476362.386239453742746, 8784681.70526759326458 ], [ 476506.770086185191758, 8784531.805866498500109 ], [ 476546.823801713413559, 8784570.334223078563809 ], [ 476576.723716111970134, 8784564.628627322614193 ], [ 476645.873008489084896, 8784523.236586263403296 ], [ 476749.277277965680696, 8784445.478047939017415 ], [ 476838.227760815352667, 8784393.564129572361708 ], [ 476942.294287845783401, 8784346.507930424064398 ], [ 476992.086406722897664, 8784335.304407520219684 ], [ 477237.052941853005905, 8784335.875603767111897 ], [ 477246.492302981030662, 8784304.22134692966938 ], [ 477221.031872588966507, 8784285.15811181627214 ], [ 477220.884480792796239, 8784285.160844856873155 ], [ 477467.32359005784383, 8784173.787334144115448 ], [ 477556.434425802552141, 8784164.900387167930603 ], [ 477779.205106968351174, 8784156.051063131541014 ], [ 478063.075335926259868, 8784155.972947373986244 ], [ 478046.959563111071475, 8784139.405034687370062 ], [ 477965.625634779396933, 8784019.521654613316059 ], [ 477880.046102648659144, 8783835.533764880150557 ], [ 477781.591955887677614, 8783608.695633901283145 ], [ 477661.756634615361691, 8783377.564676595851779 ], [ 477597.559209676168393, 8783214.862481940537691 ], [ 477636.077572957437951, 8783005.193284075707197 ], [ 477670.327948241261765, 8782620.012030132114887 ], [ 477670.316216278006323, 8782465.965469278395176 ], [ 477559.050554521323647, 8782313.607966031879187 ], [ 477511.963493699964602, 8782253.630153216421604 ], [ 477477.727040196361486, 8782116.730103494599462 ], [ 477482.010700886312407, 8781761.450274398550391 ], [ 477537.647452753095422, 8781547.447189630940557 ], [ 477554.757542158069555, 8781273.534491999074817 ], [ 477580.449856494204141, 8781042.442837703973055 ], [ 477631.803211103368085, 8780807.090451383963227 ], [ 477644.638960552576464, 8780653.034148830920458 ], [ 477589.01022333605215, 8780438.937392931431532 ], [ 477541.931222126528155, 8780344.798859141767025 ], [ 477524.80605061625829, 8780212.161913592368364 ], [ 477522.937408273399342, 8780150.242378422990441 ], [ 477495.422392536012921, 8780115.581501958891749 ], [ 477495.417380908795167, 8779905.720669250935316 ], [ 477515.728215648094192, 8779377.907446008175611 ], [ 477603.684618762286846, 8779086.967887084931135 ], [ 477739.032801774155814, 8778795.961109118536115 ], [ 477901.440991845622193, 8778464.299892606213689 ], [ 477691.282682023069356, 8778112.099208816885948 ], [ 477534.893456100544427, 8777871.473970141261816 ], [ 477402.556753137498163, 8777618.817902421578765 ], [ 477258.185825922526419, 8777161.670178150758147 ], [ 477065.707016266242135, 8776812.815630661323667 ], [ 477058.348153860075399, 8776673.193184135481715 ], [ 477041.643127402465325, 8776355.585039168596268 ], [ 477058.367132187820971, 8776332.614086426794529 ], [ 477036.915928259433713, 8776293.942199466750026 ], [ 477078.889659142994788, 8775853.235715199261904 ], [ 477183.834147102374118, 8775097.693633897230029 ], [ 477372.728674862650223, 8774300.106237564235926 ], [ 478044.332518403127324, 8773796.417606465518475 ], [ 478527.066758930159267, 8773649.543706530705094 ], [ 479261.644295674050227, 8773271.688219603151083 ], [ 479765.361956774955615, 8773061.772734263911843 ], [ 480248.090435823425651, 8773019.833423599600792 ], [ 480688.842428303789347, 8773082.767540002241731 ], [ 481108.606773598236032, 8773439.63101552054286 ], [ 481332.155043721140828, 8773769.100189428776503 ], [ 481336.529689678514842, 8773769.034304650500417 ], [ 481541.059697234712075, 8773853.259065710008144 ], [ 481697.443631552334409, 8773949.501050347462296 ], [ 481829.799932739406358, 8774033.72459171526134 ], [ 482034.314115440880414, 8774117.918191641569138 ], [ 482202.725949802901596, 8774117.943308439105749 ], [ 482479.431480425177142, 8774045.799721671268344 ], [ 482503.491379250248428, 8774045.794609634205699 ], [ 482579.70916421234142, 8774186.478031150996685 ], [ 482586.286089810542762, 8774167.968284508213401 ], [ 482606.377389807254076, 8774172.820576630532742 ], [ 482696.576002271962352, 8774232.055486792698503 ], [ 482769.247184359177481, 8774309.399655787274241 ], [ 482794.793647714774124, 8774338.847041634842753 ], [ 482882.911522291426081, 8774491.772935209795833 ], [ 482960.433218013553414, 8774615.048145037144423 ], [ 482970.702499775681645, 8774630.198766412213445 ], [ 483065.860043322318234, 8774638.270012492313981 ], [ 483186.487480256648269, 8774669.889013431966305 ], [ 483393.129562943591736, 8774750.591762136667967 ], [ 483393.672499001491815, 8774775.252267172560096 ], [ 483392.179428528994322, 8774776.276861099526286 ], [ 483439.802042507508304, 8774776.197179572656751 ], [ 483477.64464556571329, 8774723.900546887889504 ], [ 483517.632027910207398, 8774722.474733799695969 ], [ 483568.080444466962945, 8774746.472049873322248 ], [ 483722.9891565371654, 8774738.510452123358846 ], [ 483792.512874060194008, 8774717.172411343082786 ], [ 483842.299107858096249, 8774705.471610581502318 ], [ 483852.775535436288919, 8774730.895572943612933 ], [ 483831.698316931724548, 8774774.59013688005507 ], [ 483919.39013716444606, 8774768.090609284117818 ], [ 483953.387796931725461, 8774578.010196214541793 ], [ 483927.810680677881464, 8774363.699930615723133 ], [ 483944.451882902299985, 8774353.661727026104927 ], [ 483930.986652124673128, 8774302.491930617019534 ], [ 483985.131969487527385, 8774207.808280196040869 ], [ 484075.059787932026666, 8774160.6624496858567 ], [ 484086.390759054920636, 8774170.004393143579364 ], [ 484246.740289111156017, 8774186.706977523863316 ], [ 484276.63062671921216, 8774181.304476195946336 ], [ 484350.229724624659866, 8774109.606979863718152 ], [ 484450.319292544270866, 8773970.387456743046641 ], [ 484524.536358948971611, 8773830.71780620701611 ], [ 484573.398891654971521, 8773773.853424204513431 ], [ 484686.903739918139763, 8773696.657658789306879 ], [ 484746.435580568446312, 8773675.497631402686238 ], [ 484796.607883764547296, 8773684.257040973752737 ], [ 484855.586922873510048, 8773633.307301791384816 ], [ 484833.164883546647616, 8773627.107665287330747 ], [ 484963.030766076641157, 8773558.332000304013491 ], [ 484993.244510757562239, 8773514.9933368768543 ], [ 485025.528745998279192, 8773384.346017308533192 ], [ 485034.315348165924661, 8773323.743573838844895 ], [ 485018.316255143494345, 8773274.4905164539814 ], [ 484946.72784827084979, 8773195.328233517706394 ], [ 484814.718130778928753, 8773099.049667343497276 ], [ 484739.17747494840296, 8773070.175216648727655 ], [ 484467.345273268409073, 8772981.465793140232563 ], [ 484397.381554600957315, 8772983.236964695155621 ], [ 484227.213415029167663, 8772976.906555460765958 ], [ 484182.141100291861221, 8772972.346185302361846 ], [ 484166.512967845133971, 8772938.502166228368878 ], [ 484118.156011396902613, 8772773.814354054629803 ], [ 484107.315091923752334, 8772733.993997080251575 ], [ 484111.758070114767179, 8772704.135103302076459 ], [ 484171.566136897832621, 8772698.236091937869787 ], [ 484376.533360373869073, 8772693.070458199828863 ], [ 484435.138546261528973, 8772621.679849782958627 ], [ 484454.948373085062485, 8772616.297057026997209 ], [ 484550.481870189192705, 8772639.771081058308482 ], [ 484640.876924815878738, 8772693.229452444240451 ], [ 484652.116883138485719, 8772721.999205444008112 ], [ 484626.465349469450302, 8772818.530958611518145 ], [ 484649.437461256980896, 8772836.998146140947938 ], [ 484774.884236674872227, 8772859.338011054322124 ], [ 484875.072869670984801, 8772867.488050006330013 ], [ 484975.948678406712133, 8772909.680995607748628 ], [ 485057.435485274239909, 8772983.703073063865304 ], [ 485167.34189535205951, 8772975.575099546462297 ], [ 485402.449923196632881, 8772985.509777650237083 ], [ 485577.725826285372023, 8772997.07626392506063 ], [ 485653.161045840650331, 8773020.087161036208272 ], [ 485708.063906829629559, 8773013.537569859996438 ], [ 485812.73561438388424, 8772934.204522348940372 ], [ 485786.259938685747329, 8772739.960962001234293 ], [ 485725.049608351197094, 8772531.941831583157182 ], [ 485660.73833015433047, 8772467.611268203705549 ], [ 485520.980696962680668, 8772445.125236602500081 ], [ 485441.967881058109924, 8772464.689734444022179 ], [ 485386.982775201962795, 8772466.229052735492587 ], [ 485325.961689711431973, 8772417.614767380058765 ], [ 485289.86626984376926, 8772362.68038609623909 ], [ 485273.556886453530751, 8772298.136257199570537 ], [ 485315.568170901678968, 8772151.978900017216802 ], [ 485330.01557321153814, 8772122.006446389481425 ], [ 485359.647812810144387, 8772106.365087797865272 ], [ 485399.636029112734832, 8772105.001087112352252 ], [ 485450.460367361723911, 8772144.47448300011456 ], [ 485520.472147524124011, 8772142.762743055820465 ], [ 485550.084965097950771, 8772127.126180255785584 ], [ 485589.235057488898747, 8772086.600767374038696 ], [ 485641.909286423469894, 8771970.244381254538894 ], [ 485670.130332804576028, 8771879.6208590362221 ], [ 485708.721580283599906, 8771813.545746564865112 ], [ 485759.378365533950273, 8771841.983756059780717 ], [ 485875.262785217142664, 8771841.552699802443385 ], [ 486022.93244388961466, 8771771.684067314490676 ], [ 486052.46018959605135, 8771750.926310606300831 ], [ 486052.182061988452915, 8771735.638092407956719 ], [ 486078.364021570829209, 8771545.374456238001585 ], [ 486151.688660103769507, 8771463.744871834293008 ], [ 486273.779715042561293, 8771320.972604116424918 ], [ 486288.13973997120047, 8771285.878364190459251 ], [ 486339.405747889657505, 8771103.938548129051924 ], [ 486333.58189271192532, 8771064.044333601370454 ], [ 486216.357039950613398, 8770952.049928477033973 ], [ 486145.532799279899336, 8770913.660732222720981 ], [ 486085.182611204741988, 8770894.690887382254004 ], [ 485955.211949654563796, 8770897.827643780037761 ], [ 485648.671097081096377, 8770824.762344913557172 ], [ 485578.89858479204122, 8770831.48590350523591 ], [ 485539.083434978150763, 8770842.105754440650344 ], [ 485378.159394284361042, 8770800.570506596937776 ], [ 485291.339124704420101, 8770707.056214477866888 ], [ 485295.961808114021551, 8770687.468636807054281 ], [ 485355.858297285507433, 8770685.868359027430415 ], [ 485416.315252024098299, 8770704.801779989153147 ], [ 485491.116960115614347, 8770697.898818140849471 ], [ 485518.154007617675234, 8770547.794572466984391 ], [ 485517.120332033140585, 8770497.467750065028667 ], [ 485475.637166726402938, 8770428.1917793918401 ], [ 485424.53694503911538, 8770369.186956290155649 ], [ 485461.454538637364749, 8770218.854069720953703 ], [ 485481.18336633965373, 8770208.354797033593059 ], [ 485565.703994917392265, 8770181.029096344485879 ], [ 485634.760932629287709, 8770135.02468859963119 ], [ 485642.645642772782594, 8770109.485164429992437 ], [ 485661.904174933035392, 8770017.291374692693353 ], [ 485688.914178896113299, 8769941.192982889711857 ], [ 485777.911365504260175, 8769802.214683644473553 ], [ 485791.929167175723705, 8769781.517136527225375 ], [ 485817.912057209177874, 8769789.814944138750434 ], [ 485949.915854004037101, 8769945.024755600839853 ], [ 485956.988130996411201, 8770093.951692814007401 ], [ 485954.221057678456418, 8770101.684430344030261 ], [ 485944.622557163413148, 8770130.70136196538806 ], [ 485940.286582111963071, 8770408.338501390069723 ], [ 485951.65926526725525, 8770478.081295296549797 ], [ 485978.3385239392519, 8770557.027094146236777 ], [ 486046.299755122628994, 8770706.050215581431985 ], [ 486102.378254834678955, 8770759.108785046264529 ], [ 486188.319549419276882, 8770802.461804023012519 ], [ 486448.393744286207948, 8770923.602356849238276 ], [ 486704.305726465885527, 8770879.428023379296064 ], [ 486802.331772908335552, 8770872.91369991004467 ], [ 486823.644109071290586, 8770808.955439494922757 ], [ 486995.160007428610697, 8770523.089144242927432 ], [ 487069.923713818076067, 8770400.3143479693681 ], [ 487075.349702141538728, 8770408.070926347747445 ], [ 487095.152691055787727, 8770397.596616899594665 ], [ 487222.622547240171116, 8770274.508351044729352 ], [ 487261.685835062293336, 8770229.015229402109981 ], [ 487276.731508329277858, 8770088.338738949969411 ], [ 487662.610107049637008, 8770084.561014575883746 ], [ 487645.569841640244704, 8770009.614056231454015 ], [ 487587.542155810457189, 8769755.712155152112246 ], [ 487507.752777319052257, 8769552.592291595414281 ], [ 487494.221835905511398, 8769527.280269021168351 ], [ 487506.919714461662807, 8769507.843432899564505 ], [ 487496.919881536567118, 8769384.387179730460048 ], [ 487475.905445037933532, 8769359.038964129984379 ], [ 487386.913344527012669, 8769267.968083739280701 ], [ 487376.611657901317813, 8769261.040882935747504 ], [ 487529.523807767778635, 8769175.453344421461225 ], [ 487652.838607233716175, 8769037.60805313102901 ], [ 487950.224491558154114, 8768696.726687533780932 ], [ 488059.036356479453389, 8768464.526528175920248 ], [ 488182.346265317697544, 8768188.892662815749645 ], [ 488378.189457070780918, 8767768.276879969984293 ], [ 488494.243846783880144, 8767463.612095249816775 ], [ 488559.532172922627069, 8767195.251472936943173 ], [ 488566.770037302921992, 8766883.338611625134945 ], [ 488457.97243842825992, 8766607.652719058096409 ], [ 488312.904830241401214, 8766194.249932235106826 ], [ 488218.605289690080099, 8766012.872886307537556 ], [ 488233.115978807327338, 8765831.587856715545058 ], [ 488320.163892913085874, 8765570.376741671934724 ], [ 488501.506092876952607, 8765309.304370630532503 ], [ 488690.088657466287259, 8764946.625995701178908 ], [ 488798.88178749679355, 8764845.082318184897304 ], [ 488837.745317175926175, 8764835.135613242164254 ], [ 489333.703371797630098, 8764829.126304579898715 ], [ 489871.622000702132937, 8764835.138623235747218 ], [ 490062.864820506423712, 8764876.907278945669532 ], [ 490284.001255026727449, 8764960.549631236121058 ], [ 490544.005789198214188, 8765032.328341905027628 ], [ 490581.796113438438624, 8765032.26590184122324 ], [ 490349.378272885107435, 8764790.83977977745235 ], [ 490269.909978560113814, 8764807.305307071655989 ], [ 490248.902587740449235, 8764787.937184678390622 ], [ 490277.549560911778826, 8764736.260958455502987 ], [ 490285.903995379456319, 8764721.240015996620059 ], [ 490289.194445822853595, 8764717.977694056928158 ], [ 490213.33839031989919, 8764685.421287393197417 ], [ 490075.525592977763154, 8764518.645187029615045 ], [ 489952.20704565331107, 8764322.748320108279586 ], [ 489937.699446081882343, 8764134.241499330848455 ], [ 489902.864656856807414, 8763724.684743529185653 ], [ 489836.155376073205844, 8763553.901619730517268 ], [ 489821.647580479795579, 8763299.991611491888762 ], [ 489785.381341168482322, 8763031.638184305280447 ], [ 489838.883009469893295, 8762811.662339316681027 ], [ 489824.889094601618126, 8762813.896725282073021 ], [ 489803.911355689284392, 8762800.450946643948555 ], [ 489801.894092454575002, 8762755.376309309154749 ], [ 489828.892427414073609, 8762684.394741453230381 ], [ 489847.897774187673349, 8762657.900023423135281 ], [ 489892.705773368827067, 8762623.718882566317916 ], [ 489937.218031870550476, 8762589.764969741925597 ], [ 489917.78589134151116, 8762545.053613035008311 ], [ 489830.67937816795893, 8762390.172156419605017 ], [ 489733.891056897933595, 8762225.665780898183584 ], [ 489643.550383429741487, 8762099.842567633837461 ], [ 489543.551222597016022, 8762028.79613290168345 ], [ 489485.905683103599586, 8762011.309579527005553 ], [ 489487.905333789589349, 8762057.946506464853883 ], [ 489467.891009418468457, 8762074.298486253246665 ], [ 489447.918957852525637, 8762065.091329045593739 ], [ 489444.908693921752274, 8762010.650148674845695 ], [ 489456.901314180577174, 8761993.807296605780721 ], [ 489430.631014391139615, 8761967.576865771785378 ], [ 489330.614717050513718, 8761944.986958546563983 ], [ 489243.511483840935398, 8761938.47770775295794 ], [ 489107.094341869757045, 8761954.16706258058548 ], [ 488603.469343419768848, 8761416.813867907971144 ], [ 488212.573376894695684, 8760654.893138645216823 ], [ 489499.12715339649003, 8753014.044564515352249 ], [ 492587.460369704000186, 8749218.194053338840604 ], [ 494138.894778727320954, 8730945.744347063824534 ], [ 499069.109041825926397, 8686919.949286973103881 ], [ 523626.403859054145869, 8704720.889359509572387 ] ] ] } },
{ "type": "Feature", "properties": { "zone_label": "C", "zone_name": "C Spitsbergen", "color": "#83cda9" }, "geometry": { "type": "Polygon", "coordinates": [ [ [ 457701.894690007087775, 8618929.555153030902147 ], [ 488889.72238866891712, 8630219.465158743783832 ], [ 509460.353721573483199, 8629746.577082125470042 ], [ 521361.370316472253762, 8636288.195475347340107 ], [ 538517.683812886709347, 8640946.080561397597194 ], [ 547890.317120259511285, 8652003.681654363870621 ], [ 560852.709075991529971, 8657024.579218830913305 ], [ 564732.030246288166381, 8651350.348253322765231 ], [ 565413.457664465531707, 8650498.023253854364157 ], [ 567139.107064357376657, 8649555.145222473889589 ], [ 575064.660179091035388, 8651684.837033661082387 ], [ 579602.91306849278044, 8652257.22928998246789 ], [ 584836.534146721824072, 8660988.250004565343261 ], [ 569728.745332918595523, 8672959.252157874405384 ], [ 568843.932914294651709, 8676342.258427420631051 ], [ 567998.186131587484851, 8680842.83519022166729 ], [ 561305.508911229786463, 8687047.966387905180454 ], [ 538092.273694032453932, 8699720.341762233525515 ], [ 523626.403859054145869, 8704720.889359509572387 ], [ 499069.109041825926397, 8686919.949286973103881 ], [ 421705.954577091499232, 8658787.893117979168892 ], [ 457701.894690007087775, 8618929.555153030902147 ] ] ] } },
{ "type": "Feature", "properties": { "zone_label": "S", "zone_name": "S Spitsbergen", "color": "#7e3404" }, "geometry": { "type": "Polygon", "coordinates": [ [ [ 572283.650276833213866, 8487921.202063566073775 ], [ 536792.23044806777034, 8474148.412279268726707 ], [ 473938.839759433991276, 8581478.037473818287253 ], [ 457701.894690007087775, 8618929.555153030902147 ], [ 488889.72238866891712, 8630219.465158743783832 ], [ 509460.353721573483199, 8629746.577082125470042 ], [ 521361.370316472253762, 8636288.195475347340107 ], [ 538517.683812886709347, 8640946.080561397597194 ], [ 547890.317120259511285, 8652003.681654363870621 ], [ 560852.709075991529971, 8657024.579218830913305 ], [ 564732.030246288166381, 8651350.348253322765231 ], [ 565413.457664465531707, 8650498.023253854364157 ], [ 567139.107064357376657, 8649555.145222473889589 ], [ 575064.660179091035388, 8651684.837033661082387 ], [ 579602.91306849278044, 8652257.22928998246789 ], [ 589666.277846424141899, 8609636.336422763764858 ], [ 572283.650276833213866, 8487921.202063566073775 ] ] ] } },
{ "type": "Feature", "properties": { "zone_label": "B", "zone_name": "Barentsøya / Edgeøya", "color": "#bb6a07" }, "geometry": { "type": "Polygon", "coordinates": [ [ [ 674002.459989308845252, 8558964.539773257449269 ], [ 600844.907247337978333, 8653556.893051669001579 ], [ 607260.413812977145426, 8724957.287697603926063 ], [ 633390.133528323145583, 8736353.778629396110773 ], [ 635140.922911122441292, 8739638.012488951906562 ], [ 636585.918627887265757, 8740314.80062573030591 ], [ 638512.95807464804966, 8739957.086716450750828 ], [ 673915.496784335700795, 8732843.414218936115503 ], [ 732003.235550387762487, 8656603.217806469649076 ], [ 704826.736254234332591, 8589567.852875959128141 ], [ 674002.459989308845252, 8558964.539773257449269 ] ] ] } },
{ "type": "Feature", "properties": { "zone_label": "NE", "zone_name": "NE Spitsbergen", "color": "#cbebda" }, "geometry": { "type": "Polygon", "coordinates": [ [ [ 600844.907247337978333, 8653556.893051669001579 ], [ 584836.534146721824072, 8660988.250004565343261 ], [ 569728.745332918595523, 8672959.252157874405384 ], [ 568843.932914294651709, 8676342.258427420631051 ], [ 567998.186131587484851, 8680842.83519022166729 ], [ 561305.508911229786463, 8687047.966387905180454 ], [ 538092.273694032453932, 8699720.341762233525515 ], [ 523626.403859054145869, 8704720.889359509572387 ], [ 531165.400329141528346, 8720522.978345746174455 ], [ 534317.330279910587706, 8733960.153399024158716 ], [ 532175.793912170222029, 8745010.321885567158461 ], [ 532518.938162967562675, 8745966.966463547199965 ], [ 533600.362468510633335, 8745925.373221026733518 ], [ 533881.116855524247512, 8747020.408365875482559 ], [ 528873.649431066471152, 8752890.652791354805231 ], [ 528554.831312322872691, 8756085.16322292946279 ], [ 530051.134925176622346, 8762070.377674344927073 ], [ 511567.426349567133002, 8820947.542793983593583 ], [ 503993.097271638805978, 8862852.073477678000927 ], [ 508609.865194017940667, 8895147.168144641444087 ], [ 538002.808772065211087, 8895986.966532584279776 ], [ 555407.2219017642783, 8881721.05413119494915 ], [ 569102.497807101230137, 8850050.728600103408098 ], [ 607620.461290861596353, 8816953.811828872188926 ], [ 637578.877333786222152, 8791275.169506365433335 ], [ 663257.519656293094158, 8768735.027912164106965 ], [ 673915.496784335700795, 8732843.414218936115503 ], [ 638512.95807464804966, 8739957.086716450750828 ], [ 636585.918627887265757, 8740314.80062573030591 ], [ 635140.922911122441292, 8739638.012488951906562 ], [ 633390.133528323145583, 8736353.778629396110773 ], [ 607260.413812977145426, 8724957.287697603926063 ], [ 600844.907247337978333, 8653556.893051669001579 ] ] ] } },
{ "type": "Feature", "properties": { "zone_label": "V", "zone_name": "Vestfonna", "color": "#f6ebb6" }, "geometry": { "type": "Polygon", "coordinates": [ [ [ 536470.31973477487918, 8909621.6012700535357 ], [ 538002.808772065211087, 8895986.966532584279776 ], [ 555407.2219017642783, 8881721.05413119494915 ], [ 569102.497807101230137, 8850050.728600103408098 ], [ 588832.230672935722396, 8846426.191517101600766 ], [ 618624.352413613349199, 8859742.367143616080284 ], [ 635824.361111843027174, 8866598.525736205279827 ], [ 647620.681776636280119, 8880402.544664761051536 ], [ 636206.737657896825112, 8910078.799373483285308 ], [ 618331.649809920112602, 8944395.663922443985939 ], [ 572660.876548821455799, 8947619.483211463317275 ], [ 536470.31973477487918, 8909621.6012700535357 ] ] ] } },
 { "type": "Feature", "properties": { "zone_label": "A", "zone_name": "Austfonna", "color": "#ddbd5c" }, "geometry": { "type": "Polygon", "coordinates": [ [ [ 663257.519656293094158, 8768735.027912164106965 ], [ 637578.877333786222152, 8791275.169506365433335 ], [ 607620.461290861596353, 8816953.811828872188926 ], [ 569102.497807101230137, 8850050.728600103408098 ], [ 588832.230672935722396, 8846426.191517101600766 ], [ 618624.352413613349199, 8859742.367143616080284 ], [ 635824.361111843027174, 8866598.525736205279827 ], [ 647620.681776636280119, 8880402.544664761051536 ], [ 636206.737657896825112, 8910078.799373483285308 ], [ 618331.649809920112602, 8944395.663922443985939 ], [ 643080.973417802364565, 8953658.374749140813947 ], [ 762962.348607131512836, 8938149.245791081339121 ], [ 747872.385296586551704, 8850124.45981290191412 ], [ 663257.519656293094158, 8768735.027912164106965 ] ] ] } },
 { "type": "Feature", "properties": { "zone_label": "K", "zone_name": "Kvitøya", "color": "#c9a63a" }, "geometry": { "type": "Polygon", "coordinates": [ [ [ 806141, 8930046 ], [ 850598, 8930046 ], [ 850598, 8971119 ], [ 806141, 8971119 ], [ 806141, 8930046 ] ] ] } }
]
}
