{
"type": "FeatureCollection",
"name": "outline_corrections",
"crs": { "type": "name", "properties": { "name": "urn:ogc:def:crs:EPSG::32633" } },
"features": [
{ "type": "Feature", "properties": { "fix_id": 0, "rgi_id": "RGI2000-v7.0-G-07-01342", "fix_type": "tidewater_extension", "first_active_year": 2013, "last_active_year": 2024, "priority": 1, "notes": null }, "geometry": { "type": "Polygon", "coordinates": [ [ [ 582378.769257666077465, 8892967.860252808779478 ], [ 582204.664807246765122, 8893116.779782731086016 ], [ 582166.339928223751485, 8893294.169222781434655 ], [ 582536.448759932420217, 8893230.659423252567649 ], [ 583019.562393453787081, 8893125.254006810486317 ], [ 583460.625842660665512, 8892700.681096192449331 ], [ 584025.644059115555137, 8890304.828658975660801 ], [ 583552.605552316294052, 8891058.186280915513635 ], [ 583097.086990213138051, 8891758.984068766236305 ], [ 582764.208040983998217, 8892337.14224374294281 ], [ 582518.928815236198716, 8892705.061082364991307 ], [ 582378.769257666077465, 8892967.860252808779478 ] ] ] } },
{ "type": "Feature", "properties": { "fix_id": 1, "rgi_id": "RGI2000-v7.0-G-07-01343", "fix_type": "tidewater_extension", "first_active_year": 2013, "last_active_year": 2024, "priority": 1, "notes": null }, "geometry": { "type": "Polygon", "coordinates": [ [ [ 583642.395268880063668, 8893342.349070694297552 ], [ 583019.562393453787081, 8893125.254006810486317 ], [ 582536.448759932420217, 8893230.659423252567649 ], [ 582274.538997271563858, 8893275.602518623694777 ], [ 582166.339928223751485, 8893294.169222781434655 ], [ 582413.809147057705559, 8893882.182366648688912 ], [ 583193.446686039678752, 8895165.518315644934773 ], [ 584840.321487484034151, 8895226.838122081011534 ], [ 585100.93066484038718, 8894773.50955306738615 ], [ 583642.395268880063668, 8893342.349070694297552 ] ] ] } },
{ "type": "Feature", "properties": { "fix_id": 244720, "rgi_id": "RGI2000-v7.0-G-07-01363", "fix_type": "tidewater_extension", "first_active_year": 2013, "last_active_year": 2024, "priority": 1, "notes": null }, "geometry": { "type": "Polygon", "coordinates": [ [ [ 609751.4928524189163, 8911807.275783965364099 ], [ 610270.521214044303633, 8911835.745694095268846 ], [ 610154.451580431894399, 8911680.256184916943312 ], [ 609992.392091991845518, 8911211.597664292901754 ], [ 610583.690225489321165, 8909652.322586329653859 ], [ 609611.33329484926071, 8909310.683664754033089 ], [ 608507.576778987539001, 8911237.877581337466836 ], [ 609751.4928524189163, 8911807.275783965364099 ] ] ] } },
{ "type": "Feature", "properties": { "fix_id": 282687, "rgi_id": "RGI2000-v7.0-G-07-01371", "fix_type": "tidewater_extension", "first_active_year": 2013, "last_active_year": 2024, "priority": 1, "notes": null }, "geometry": { "type": "Polygon", "coordinates": [ [ [ 666919.07239617803134, 8912416.093862153589725 ], [ 666542.393585209385492, 8912713.93292199075222 ], [ 666008.035271974746138, 8912906.652313647791743 ], [ 666752.6329215640435, 8914623.606893878430128 ], [ 667100.658478042460047, 8914529.410348 ], [ 667256.526634976500645, 8914410.310022782534361 ], [ 667312.176155301975086, 8914262.805532785132527 ], [ 666919.07239617803134, 8912416.093862153589725 ] ] ] } },
{ "type": "Feature", "properties": { "fix_id": 622531, "rgi_id": "RGI2000-v7.0-G-07-01370", "fix_type": "tidewater_extension", "first_active_year": 2013, "last_active_year": 2024, "priority": 1, "notes": null }, "geometry": { "type": "Polygon", "coordinates": [ [ [ 662217.157238276908174, 8907005.168442299589515 ], [ 662134.222620040760376, 8906911.543056637048721 ], [ 662162.407411100692116, 8906118.221242044121027 ], [ 663599.042876206338406, 8905824.762168379500508 ], [ 663669.122654992039315, 8906297.800675181671977 ], [ 663728.9200302537065, 8906381.78396225348115 ], [ 663730.44246142951306, 8906630.679624414071441 ], [ 662217.157238276908174, 8907005.168442299589515 ] ] ] } },
{ "type": "Feature", "properties": { "fix_id": 734787, "rgi_id": "RGI2000-v7.0-G-07-01370", "fix_type": "land_extension", "first_active_year": 2013, "last_active_year": 2024, "priority": 1, "notes": null }, "geometry": { "type": "Polygon", "coordinates": [ [ [ 657020.303642703336664, 8889780.872812649235129 ], [ 656972.123794788261876, 8890118.131748054176569 ], [ 657064.103504444356076, 8890499.190545201301575 ], [ 657094.763407663092948, 8890779.509660344570875 ], [ 657156.083214100566693, 8891002.888955222442746 ], [ 657326.902674890588969, 8891221.888263927772641 ], [ 657467.062232461874373, 8891449.647544981911778 ], [ 657488.96216333238408, 8891725.586673948913813 ], [ 657572.18190064036753, 8892146.065346663817763 ], [ 657690.441527341143228, 8892435.144434154033661 ], [ 658540.158845117199235, 8892864.383079217746854 ], [ 658943.117573134717532, 8893346.181558368727565 ], [ 659148.976923317532055, 8894095.159194139763713 ], [ 659179.636826536152512, 8894559.437728594988585 ], [ 659013.197351920185611, 8894905.456636348739266 ], [ 658855.51784965256229, 8895255.855530276894569 ], [ 658776.678098518634215, 8895579.974507160484791 ], [ 658767.918126170523465, 8895917.233442567288876 ], [ 658680.318402688368224, 8896267.632336495444179 ], [ 658579.578720684046857, 8896801.990649735555053 ], [ 658167.86002031841781, 8897388.90879706479609 ], [ 658115.300186229171231, 8897958.306999698281288 ], [ 658124.060158577398397, 8898527.705202331766486 ], [ 658106.540213881060481, 8898869.344123911112547 ], [ 658159.10004797030706, 8899210.983045492321253 ], [ 658229.179826755891554, 8899521.962063852697611 ], [ 658246.699771452345885, 8899828.561096040531993 ], [ 658286.119647019426338, 8900148.300086749717593 ], [ 658505.118955724523403, 8900498.698980677872896 ], [ 658947.497559308889322, 8900853.47786078043282 ], [ 659232.196660625631921, 8901142.556948270648718 ], [ 659240.956632973742671, 8901365.936243150383234 ], [ 659346.076301152235828, 8901681.295247685164213 ], [ 659429.296038460219279, 8902158.713740663602948 ], [ 659766.554973865975626, 8902439.032855805009604 ], [ 660217.693549798568711, 8902732.491929469630122 ], [ 660370.993065892136656, 8903012.811044612899423 ], [ 660664.45213955687359, 8903753.028708035126328 ], [ 661006.091061136918142, 8904261.107104232534766 ], [ 661251.370286886696704, 8904760.425528079271317 ], [ 661382.769872109754942, 8904988.184809133410454 ], [ 661601.769180814852007, 8905189.664173141121864 ], [ 661812.008517171838321, 8905653.942707596346736 ], [ 661785.728600127273239, 8906083.181352658197284 ], [ 661960.928047091350891, 8906197.060993185266852 ], [ 662083.567659966181964, 8906389.780384846031666 ], [ 662324.466899542021565, 8906378.830419410020113 ], [ 660633.792236338020302, 8892673.853680642321706 ], [ 657020.303642703336664, 8889780.872812649235129 ] ] ] } },
{ "type": "Feature", "properties": { "fix_id": 993164, "rgi_id": "RGI2000-v7.0-G-07-01370", "fix_type": "land_extension", "first_active_year": 2013, "last_active_year": 2024, "priority": 1, "notes": null }, "geometry": { "type": "Polygon", "coordinates": [ [ [ 665123.278064793208614, 8902909.881369521841407 ], [ 665570.036654551746324, 8902918.641341870650649 ], [ 665705.816225948859937, 8903216.480401709675789 ], [ 665697.056253600632772, 8903619.439129726961255 ], [ 665705.816225948859937, 8904118.757553573697805 ], [ 665513.096834288327955, 8904289.577014364302158 ], [ 665132.03803714143578, 8904482.296406025066972 ], [ 664694.039419731241651, 8904482.296406025066972 ], [ 664326.120581106515601, 8904394.696682542562485 ], [ 663958.201742481905967, 8904447.256516631692648 ], [ 663765.482350821373984, 8904420.976599587127566 ], [ 663599.042876205523498, 8904140.657484445720911 ], [ 663450.123346286010928, 8903947.938092784956098 ], [ 663143.524314098875038, 8903921.658175740391016 ], [ 662985.844811831135303, 8903921.658175740391016 ], [ 663090.96448000962846, 8904061.817733310163021 ], [ 663231.124037580913864, 8904166.937401490285993 ], [ 663423.843429241445847, 8904166.937401490285993 ], [ 663599.042876205523498, 8904201.977290881797671 ], [ 663669.122654991107993, 8904307.096959060057998 ], [ 663669.122654991107993, 8904456.01648898050189 ], [ 663572.762959160842001, 8904596.17604655213654 ], [ 663616.562820901861414, 8904753.85554881952703 ], [ 663778.622309343656525, 8904946.574940480291843 ], [ 663896.881936044432223, 8905244.414000319316983 ], [ 663888.121963696321473, 8905656.132700683549047 ], [ 663783.002295517828315, 8906199.250986272469163 ], [ 663616.562820901861414, 8906444.53021202236414 ], [ 662547.846194420824759, 8905165.574249183759093 ], [ 662530.326249724486843, 8903036.900968570262194 ], [ 665123.278064793208614, 8902909.881369521841407 ] ] ] } },
{ "type": "Feature", "properties": { "fix_id": 570558, "rgi_id": "RGI2000-v7.0-G-07-01371", "fix_type": "land_extension", "first_active_year": 2013, "last_active_year": 2024, "priority": 1, "notes": null }, "geometry": { "type": "Polygon", "coordinates": [ [ [ 673042.293067570542917, 8912248.011892708018422 ], [ 674040.929915265995078, 8912423.211339671164751 ], [ 674566.528256158228032, 8912300.571726797148585 ], [ 675074.606652354239486, 8912230.491948010399938 ], [ 675407.485601586056873, 8912020.252611653879285 ], [ 675687.804716728627682, 8911634.813828332349658 ], [ 675915.563997781951912, 8911231.855100315064192 ], [ 676125.80333413882181, 8910986.575874565169215 ], [ 676336.042670495808125, 8910828.896372297778726 ], [ 676739.001398513210006, 8910811.376427602022886 ], [ 676914.200845477287658, 8910793.856482906267047 ], [ 676975.394085943931714, 8910294.213931918144226 ], [ 676236.397985034855083, 8909244.436373816803098 ], [ 673042.293067570542917, 8912248.011892708018422 ] ] ] } },
{ "type": "Feature", "properties": { "fix_id": 38515, "rgi_id": "RGI2000-v7.0-G-07-01372", "fix_type": "land_extension", "first_active_year": 2013, "last_active_year": 2024, "priority": 1, "notes": null }, "geometry": { "type": "Polygon", "coordinates": [ [ [ 678032.192316417000256, 8909813.834576450288296 ], [ 676975.394085943931714, 8910294.213931918144226 ], [ 676914.200845477287658, 8910793.856482906267047 ], [ 677611.713643703144044, 8911399.389571474865079 ], [ 677953.352565283188596, 8911933.747884714975953 ], [ 678654.150353139615618, 8912117.707304028794169 ], [ 679503.867670915555209, 8912161.50716576911509 ], [ 680134.58567998628132, 8912625.785700224339962 ], [ 680817.863523146370426, 8913063.784317634999752 ], [ 681588.741089788498357, 8913545.582796784117818 ], [ 681571.221145092044026, 8914001.101358890533447 ], [ 681869.060204931069165, 8914771.978925533592701 ], [ 682272.018932948587462, 8915297.577266424894333 ], [ 682745.057439751573838, 8915630.456215657293797 ], [ 682937.776831412105821, 8915788.135717924684286 ], [ 683025.376554894144647, 8916366.293892906978726 ], [ 683279.415752992033958, 8917137.17145954631269 ], [ 683726.174342750571668, 8917689.049717484042048 ], [ 683875.093872669967823, 8918205.888086028397083 ], [ 683664.854536313097924, 8918503.727145867422223 ], [ 683612.294702223851345, 8918950.48573562502861 ], [ 683822.534038580721244, 8919616.243634089827538 ], [ 684094.093181375181302, 8920194.401809072121978 ], [ 684269.292628339258954, 8920527.280758304521441 ], [ 684225.492766598239541, 8921096.678960938006639 ], [ 684321.852462428505532, 8921429.557910168543458 ], [ 684523.331826437264681, 8921674.837135918438435 ], [ 684610.931549919419922, 8922226.715393856167793 ], [ 684637.211466964101419, 8922463.234647257253528 ], [ 684339.372407125076279, 8922682.233955962583423 ], [ 684190.452877205563709, 8923365.511799123138189 ], [ 685390.569088909775019, 8922533.314426044002175 ], [ 685478.168812391813844, 8920702.480205269530416 ], [ 683971.453568500233814, 8911303.029875645413995 ], [ 678032.192316417000256, 8909813.834576450288296 ] ] ] } },
{ "type": "Feature", "properties": { "fix_id": 862406, "rgi_id": "RGI2000-v7.0-G-07-01372", "fix_type": "tidewater_extension", "first_active_year": 2013, "last_active_year": 2024, "priority": 1, "notes": null }, "geometry": { "type": "Polygon", "coordinates": [ [ [ 684278.05260068748612, 8923488.151411997154355 ], [ 684173.100412010913715, 8923808.174705844372511 ], [ 684338.277410581009462, 8924149.529324287548661 ], [ 686282.991271882550791, 8924657.607720483094454 ], [ 689051.142533915466629, 8924859.087084492668509 ], [ 689093.406474555144086, 8924500.960420329123735 ], [ 689029.242603044956923, 8924151.719317374750972 ], [ 687012.258969870745204, 8922658.144032005220652 ], [ 684278.05260068748612, 8923488.151411997154355 ] ] ] } },
{ "type": "Feature", "properties": { "fix_id": 475349, "rgi_id": "RGI2000-v7.0-G-07-01372", "fix_type": "land_extension", "first_active_year": 2013, "last_active_year": 2024, "priority": 1, "notes": null }, "geometry": { "type": "Polygon", "coordinates": [ [ [ 688908.792983256862499, 8924226.179082337766886 ], [ 689066.472485524602234, 8924502.11821130476892 ], [ 689399.351434756419621, 8924112.299441810697317 ], [ 689530.75101997947786, 8923902.060105454176664 ], [ 689714.710439291782677, 8923674.300824400037527 ], [ 689964.369651215616614, 8923472.821460392326117 ], [ 690135.18911200563889, 8923306.381985776126385 ], [ 690419.888213322265074, 8923118.042580289766192 ], [ 690603.847632634686306, 8922986.642995065078139 ], [ 690713.347286987234838, 8922833.343478972092271 ], [ 690835.986899862065911, 8922623.104142615571618 ], [ 691138.205945875262842, 8922136.925677290186286 ], [ 691414.145074843778275, 8921891.646451540291309 ], [ 691549.924646241008304, 8921729.586963098496199 ], [ 691869.663636950426735, 8921672.647142834961414 ], [ 692049.243070088676177, 8921716.447004575282335 ], [ 692128.082821222255006, 8921742.726921617984772 ], [ 692284.8198227067478, 8920987.640084810554981 ], [ 691830.243761383229867, 8920393.691179994493723 ], [ 690481.208019759622402, 8920279.811539467424154 ], [ 688908.792983256862499, 8924226.179082337766886 ] ] ] } },
{ "type": "Feature", "properties": { "fix_id": 400329, "rgi_id": "RGI2000-v7.0-G-07-01373", "fix_type": "land_extension", "first_active_year": 2013, "last_active_year": 2024, "priority": 1, "notes": null }, "geometry": { "type": "Polygon", "coordinates": [ [ [ 692890.200415516039357, 8920560.13065460883081 ], [ 692284.8198227067478, 8920987.640084810554981 ], [ 692128.082821222255006, 8921742.726921617984772 ], [ 692697.481023855623789, 8922312.125124249607325 ], [ 693021.600000739214011, 8922688.803935222327709 ], [ 693135.479641265817918, 8922951.60310566984117 ], [ 693188.039475355064496, 8923547.28122534789145 ], [ 693283.710499236942269, 8923618.715851597487926 ], [ 693271.259212663280778, 8923407.1216677762568 ], [ 693400.468804799253121, 8922960.363078016787767 ], [ 692890.200415516039357, 8920560.13065460883081 ] ] ] } },
{ "type": "Feature", "properties": { "fix_id": 887864, "rgi_id": "RGI2000-v7.0-G-07-01373", "fix_type": "tidewater_extension", "first_active_year": 2013, "last_active_year": 2024, "priority": 1, "notes": null }, "geometry": { "type": "Polygon", "coordinates": [ [ [ 693604.13816189521458, 8922914.373223189264536 ], [ 693271.259212663280778, 8923407.1216677762568 ], [ 693277.516734064905904, 8923513.460488738492131 ], [ 693283.710499236942269, 8923618.715851597487926 ], [ 693343.528984536183998, 8923667.730845134705305 ], [ 693911.832190625602379, 8924033.459690673276782 ], [ 695339.707683383137919, 8924068.499580064788461 ], [ 696496.0240333462134, 8923744.380603181198239 ], [ 696535.443908913293853, 8923306.381985770538449 ], [ 693604.13816189521458, 8922914.373223189264536 ] ] ] } },
{ "type": "Feature", "properties": { "fix_id": 887468, "rgi_id": "RGI2000-v7.0-G-07-01373", "fix_type": "land_extension", "first_active_year": 2013, "last_active_year": 2024, "priority": 1, "notes": null }, "geometry": { "type": "Polygon", "coordinates": [ [ [ 698703.537065093172714, 8915453.066775608807802 ], [ 699076.031755741219968, 8915810.919837769120932 ], [ 699969.353069408563897, 8918703.016516789793968 ], [ 699763.493719225865789, 8918685.496572094038129 ], [ 699470.034645561012439, 8918641.696710351854563 ], [ 699316.735129467444494, 8918738.056406183168292 ], [ 699115.255765458685346, 8918843.176074361428618 ], [ 698896.256456753588282, 8918948.295742539688945 ], [ 698445.117880820878781, 8919105.975244807079434 ], [ 698261.158461508573964, 8919377.534387601539493 ], [ 698112.238931589061394, 8919710.413336833938956 ], [ 697858.199733491055667, 8920087.092147806659341 ], [ 697691.760258875205182, 8920472.530931128188968 ], [ 696955.922581625985913, 8920919.289520885795355 ], [ 696071.165374457254075, 8921243.408497769385576 ], [ 695948.525761582306586, 8917923.378977799788117 ], [ 698703.537065093172714, 8915453.066775608807802 ] ] ] } },
{ "type": "Feature", "properties": { "fix_id": 466696, "rgi_id": "RGI2000-v7.0-G-07-01374", "fix_type": "land_extension", "first_active_year": 2013, "last_active_year": 2024, "priority": 1, "notes": null }, "geometry": { "type": "Polygon", "coordinates": [ [ [ 699592.674258435610682, 8915291.007287163287401 ], [ 699076.031755741219968, 8915810.919837769120932 ], [ 699969.353069408563897, 8918703.016516789793968 ], [ 700170.832433417090215, 8918700.826523698866367 ], [ 700376.691783600021154, 8918604.466827867552638 ], [ 700529.991299693589099, 8918512.487118212506175 ], [ 700797.170456313877366, 8918455.547297948971391 ], [ 700998.6498203225201, 8918407.367450034245849 ], [ 701427.888465384603478, 8918389.847505338490009 ], [ 701813.327248705667444, 8918144.568279588595033 ], [ 702233.805921419523656, 8918074.488500801846385 ], [ 702426.525313080055639, 8917890.529081489890814 ], [ 702645.524621785152704, 8917540.130187561735511 ], [ 702820.724068749230355, 8917277.331017116084695 ], [ 703022.203432757989503, 8917242.291127722710371 ], [ 703232.442769114975818, 8917461.290436428040266 ], [ 703591.601635391358286, 8917645.249855739995837 ], [ 703889.440695230383426, 8917566.410104606300592 ], [ 704169.759810372954234, 8917435.010519383475184 ], [ 704520.158704300993122, 8917391.210657641291618 ], [ 704984.437238755868748, 8917566.410104606300592 ], [ 705229.716464505647309, 8917741.609551569446921 ], [ 705676.475054264068604, 8917767.889468614012003 ], [ 706184.553450460080057, 8917776.649440962821245 ], [ 706578.752206129254773, 8917767.889468614012003 ], [ 706850.311348923714831, 8917461.290436428040266 ], [ 707629.948887913953513, 8917233.531155373901129 ], [ 707739.448542266734876, 8916631.283056434243917 ], [ 707834.54757579928264, 8916197.316428547725081 ], [ 705058.897003715857863, 8912150.557200327515602 ], [ 699592.674258435610682, 8915291.007287163287401 ] ] ] } },
{ "type": "Feature", "properties": { "fix_id": 125352, "rgi_id": "RGI2000-v7.0-G-07-01375", "fix_type": "land_extension", "first_active_year": 2013, "last_active_year": 2024, "priority": 1, "notes": null }, "geometry": { "type": "Polygon", "coordinates": [ [ [ 708304.466758725815453, 8915812.225641878321767 ], [ 707834.54757579928264, 8916197.316428547725081 ], [ 707739.448542266734876, 8916631.283056434243917 ], [ 707629.948887913953513, 8917233.531155373901129 ], [ 707997.867726538679563, 8917597.070007825270295 ], [ 708295.706786377588287, 8917956.228874100372195 ], [ 708409.58642690430861, 8918254.067933939397335 ], [ 708497.186150386347435, 8918657.026661956682801 ], [ 708514.706095082801767, 8918805.946191877126694 ], [ 708672.385597350425087, 8919007.425555884838104 ], [ 709145.424104153527878, 8918639.506717260926962 ], [ 708304.466758725815453, 8915812.225641878321767 ] ] ] } },
{ "type": "Feature", "properties": { "fix_id": 685389, "rgi_id": "RGI2000-v7.0-G-07-01379", "fix_type": "tidewater_extension", "first_active_year": 2013, "last_active_year": 2024, "priority": 1, "notes": null }, "geometry": { "type": "Polygon", "coordinates": [ [ [ 734247.124867935897782, 8893104.187322240322828 ], [ 736699.796327652875334, 8894604.018936889246106 ], [ 737243.035411022254266, 8894641.562469350174069 ], [ 739459.308415118139237, 8891352.192852599546313 ], [ 739231.549134064815007, 8886884.606955014169216 ], [ 737006.51615762070287, 8884431.814697517082095 ], [ 736402.07806559454184, 8883897.456384276971221 ], [ 736003.499323751428165, 8883363.098071036860347 ], [ 735705.66026391251944, 8883336.818153992295265 ], [ 734247.124867935897782, 8893104.187322240322828 ] ] ] } },
{ "type": "Feature", "properties": { "fix_id": 691495, "rgi_id": "RGI2000-v7.0-G-07-01379", "fix_type": "partition_override", "first_active_year": 2013, "last_active_year": 2024, "priority": 2, "notes": null }, "geometry": { "type": "Polygon", "coordinates": [ [ [ 732797.349444307852536, 8893853.164958011358976 ], [ 733936.145849574590102, 8894685.36233109049499 ], [ 734663.22355447569862, 8895955.558321580290794 ], [ 735434.101121117593721, 8896717.675915874540806 ], [ 737466.41470590129029, 8894825.521888662129641 ], [ 734715.783388564828783, 8892924.607889102771878 ], [ 732797.349444307852536, 8893853.164958011358976 ] ] ] } },
{ "type": "Feature", "properties": { "fix_id": 357599, "rgi_id": "RGI2000-v7.0-G-07-01379", "fix_type": "partition_override", "first_active_year": 2013, "last_active_year": 2024, "priority": 2, "notes": null }, "geometry": { "type": "Polygon", "coordinates": [ [ [ 727970.604680441902019, 8885866.533918654546142 ], [ 728658.2625097760465, 8885467.955176811665297 ], [ 726674.128772911964916, 8885163.272388594225049 ], [ 723100.060054844128899, 8885373.511724950745702 ], [ 721032.706580667640083, 8885513.671282522380352 ], [ 719245.672221633722074, 8885408.551614344120026 ], [ 717458.637862599804066, 8884953.033052235841751 ], [ 716407.441180815105326, 8884707.75382648780942 ], [ 715251.124830852029845, 8884777.833605272695422 ], [ 714094.808480888954364, 8885478.631393129006028 ], [ 713253.851135461125523, 8886599.907853700220585 ], [ 713008.571909711463377, 8887300.705641556531191 ], [ 712903.45224153297022, 8888316.862433947622776 ], [ 727970.604680441902019, 8885866.533918654546142 ] ] ] } },
{ "type": "Feature", "properties": { "fix_id": 183469, "rgi_id": "RGI2000-v7.0-G-07-01383", "fix_type": "partition_override", "first_active_year": 2013, "last_active_year": 2024, "priority": 2, "notes": null }, "geometry": { "type": "Polygon", "coordinates": [ [ [ 693351.193960338481702, 8866381.891674041748047 ], [ 696181.959798037656583, 8866062.27671373449266 ], [ 697874.053894045995548, 8865911.942948533222079 ], [ 698642.217258654534817, 8863228.30162868835032 ], [ 698467.017811690457165, 8860950.708818154409528 ], [ 698221.738585940678604, 8859584.15313183516264 ], [ 698291.818364726379514, 8858147.517666729167104 ], [ 699132.775710154091939, 8856816.001869801431894 ], [ 700113.892613153089769, 8855028.967510767281055 ], [ 700394.211728295660578, 8853101.773594163358212 ], [ 700604.451064652530476, 8849772.98410184495151 ], [ 704108.440003934549168, 8847039.872729206457734 ], [ 705089.556906933546998, 8847635.550848884508014 ], [ 705369.876022076117806, 8848511.548083703964949 ], [ 705580.11535843310412, 8849177.305982168763876 ], [ 706105.71369932545349, 8849002.106535203754902 ], [ 706491.152482646517456, 8848161.149189775809646 ], [ 707086.83060232445132, 8847600.51095949113369 ], [ 708208.107062894734554, 8847109.952507991343737 ], [ 708733.705403787083924, 8845918.596268635243177 ], [ 698256.778475333238021, 8844587.080471709370613 ], [ 693351.193960338481702, 8866381.891674041748047 ] ] ] } },
{ "type": "Feature", "properties": { "fix_id": 592521, "rgi_id": "RGI2000-v7.0-G-07-01383", "fix_type": "tidewater_extension", "first_active_year": 2013, "last_active_year": 2024, "priority": 1, "notes": null }, "geometry": { "type": "Polygon", "coordinates": [ [ [ 713113.691577889723703, 8847215.072176167741418 ], [ 715204.892211987171322, 8849336.575864091515541 ], [ 717108.238968671415932, 8850561.381613181903958 ], [ 726078.450653233681805, 8843378.204287653788924 ], [ 723415.419059379259124, 8834127.673487948253751 ], [ 720472.06835038214922, 8826559.05737909860909 ], [ 713183.771356675308198, 8823335.387554958462715 ], [ 706456.112593253492378, 8821793.632421674206853 ], [ 703512.761884256382473, 8823755.866227673366666 ], [ 702249.80130866181571, 8826241.179987175390124 ], [ 702424.57286775787361, 8826338.118828060105443 ], [ 703204.010037247790024, 8826770.441662181168795 ], [ 703503.497513385023922, 8826965.510707939043641 ], [ 703809.958364706952125, 8827202.322231855243444 ], [ 703956.232302404241636, 8827334.581023907288909 ], [ 704060.706655300920829, 8827647.987115282565355 ], [ 713113.691577889723703, 8847215.072176167741418 ] ] ] } },
{ "type": "Feature", "properties": { "fix_id": 241085, "rgi_id": "RGI2000-v7.0-G-07-01383", "fix_type": "partition_override", "first_active_year": 2013, "last_active_year": 2024, "priority": 2, "notes": null }, "geometry": { "type": "Polygon", "coordinates": [ [ [ 702249.80130866181571, 8826241.179987175390124 ], [ 702496.605091864825226, 8828480.228814717382193 ], [ 704060.706655300920829, 8827647.987115282565355 ], [ 703956.232302404241636, 8827334.581023907288909 ], [ 703809.958364706952125, 8827202.322231855243444 ], [ 703503.497513385023922, 8826965.510707939043641 ], [ 703204.010037247790024, 8826770.441662181168795 ], [ 702249.80130866181571, 8826241.179987175390124 ] ] ] } },
{ "type": "Feature", "properties": { "fix_id": 481466, "rgi_id": "RGI2000-v7.0-G-07-01383", "fix_type": "partition_override", "first_active_year": 2013, "last_active_year": 2024, "priority": 100, "notes": null }, "geometry": { "type": "Polygon", "coordinates": [ [ [ 691852.143692251294851, 8839354.639488471671939 ], [ 688943.832872647093609, 8838899.12092636525631 ], [ 686596.160283328033984, 8839354.639488471671939 ], [ 685054.405150043894537, 8840300.716502077877522 ], [ 683933.128689473611303, 8841036.554179327562451 ], [ 682706.732560724834912, 8841772.391856575384736 ], [ 681164.977427440695465, 8842017.671082325279713 ], [ 679658.262183549348265, 8842438.149755040183663 ], [ 678081.467160872300155, 8843173.987432289868593 ], [ 675488.515345803578384, 8844435.423450430855155 ], [ 673841.64054434094578, 8846257.497698858380318 ], [ 672440.044968628091738, 8847974.452279105782509 ], [ 671283.728618664899841, 8848920.529292711988091 ], [ 669917.172932344838046, 8849866.606306318193674 ], [ 669076.21558691712562, 8851128.042324459180236 ], [ 668795.896471774554811, 8853195.395798636600375 ], [ 668725.816692988970317, 8855367.868940992280841 ], [ 669356.534702059696428, 8856664.344848526641726 ], [ 668025.01890513242688, 8859012.017437845468521 ], [ 667919.899236953933723, 8860693.932128701359034 ], [ 667849.819458168349229, 8862480.966487733647227 ], [ 667604.540232418570668, 8864583.35985130444169 ], [ 668375.417799060698599, 8866405.434099730104208 ], [ 669426.614480845280923, 8870224.782043548300862 ], [ 670022.292600523331203, 8871661.417508654296398 ], [ 671809.326959557365626, 8874009.090097973123193 ], [ 672755.403973163571209, 8874955.167111579328775 ], [ 673319.835551315103658, 8875462.669101253151894 ], [ 675330.835843535955064, 8873343.332199510186911 ], [ 691852.143692251294851, 8839354.639488471671939 ] ] ] } },
{ "type": "Feature", "properties": { "fix_id": 562144, "rgi_id": "RGI2000-v7.0-G-07-01385", "fix_type": "tidewater_extension", "first_active_year": 2013, "last_active_year": 2024, "priority": 1, "notes": null }, "geometry": { "type": "Polygon", "coordinates": [ [ [ 701715.87255633098539, 8826720.569369273260236 ], [ 702308.265686378232203, 8826006.631622895598412 ], [ 702422.145326904836111, 8824657.595881272107363 ], [ 700389.831742121255957, 8819349.052638258785009 ], [ 694012.571872627711855, 8819559.291974615305662 ], [ 692646.016186307650059, 8822222.323568470776081 ], [ 701715.87255633098539, 8826720.569369273260236 ] ] ] } },
{ "type": "Feature", "properties": { "fix_id": 122703, "rgi_id": "RGI2000-v7.0-G-07-01385", "fix_type": "partition_override", "first_active_year": 2013, "last_active_year": 2024, "priority": 2, "notes": null }, "geometry": { "type": "Polygon", "coordinates": [ [ [ 690543.62282273801975, 8825410.953503217548132 ], [ 688406.189569775830023, 8827758.626092538237572 ], [ 687985.71089706197381, 8829510.620562179014087 ], [ 687425.072666776832193, 8830877.176248498260975 ], [ 687144.753551634261385, 8832173.652156032621861 ], [ 687319.952998598455451, 8833645.32751053199172 ], [ 688090.830565240466967, 8835257.162422601133585 ], [ 689142.027247025165707, 8835852.840542279183865 ], [ 690385.943320467253216, 8836188.73073198646307 ], [ 692015.298177236574702, 8835747.720874100923538 ], [ 693066.494859021157026, 8835222.122533207759261 ], [ 694117.691540805855766, 8834556.364634744822979 ], [ 695484.247227125917561, 8833750.447178710252047 ], [ 696185.045014982344583, 8833119.729169638827443 ], [ 697271.28158615983557, 8832033.49259846098721 ], [ 698077.199042194755748, 8829440.540783392265439 ], [ 690543.62282273801975, 8825410.953503217548132 ] ] ] } },
{ "type": "Feature", "properties": { "fix_id": 497929, "rgi_id": "RGI2000-v7.0-G-07-01161", "fix_type": "tidewater_extension", "first_active_year": 2013, "last_active_year": 2024, "priority": 1, "notes": null }, "geometry": { "type": "Polygon", "coordinates": [ [ [ 611401.105144603759982, 8739408.829978169873357 ], [ 613052.359932240447961, 8738059.794236544519663 ], [ 613560.438328436342999, 8737669.97546705044806 ], [ 614099.17662785097491, 8737148.757112331688404 ], [ 614396.307978042401373, 8736837.543147999793291 ], [ 614657.624865049147047, 8736737.03841196373105 ], [ 615415.362473168876022, 8737953.579571820795536 ], [ 615765.761367097031325, 8739688.054096767678857 ], [ 615108.763440981623717, 8741860.527239121496677 ], [ 613915.764706806628965, 8742102.247726088389754 ], [ 613250.006808342994191, 8741664.249108679592609 ], [ 611401.105144603759982, 8739408.829978169873357 ] ] ] } },
{ "type": "Feature", "properties": { "fix_id": 983966, "rgi_id": "RGI2000-v7.0-G-07-01161", "fix_type": "partition_override", "first_active_year": 2013, "last_active_year": 2024, "priority": 2, "notes": null }, "geometry": { "type": "Polygon", "coordinates": [ [ [ 605482.101328570628539, 8739636.315510077401996 ], [ 606839.897042542579584, 8739005.597501005977392 ], [ 605744.353000749601051, 8738321.498410448431969 ], [ 605034.795240544946864, 8738120.019046438857913 ], [ 604377.797314429539256, 8738277.698548706248403 ], [ 603808.399111796170473, 8738601.817525589838624 ], [ 603536.83996900182683, 8739267.575424054637551 ], [ 603484.280134912580252, 8739801.933737294748425 ], [ 603606.919747787411325, 8740511.491497499868274 ], [ 605482.101328570628539, 8739636.315510077401996 ] ] ] } },
{ "type": "Feature", "properties": { "fix_id": 671510, "rgi_id": "RGI2000-v7.0-G-07-01203", "fix_type": "tidewater_extension", "first_active_year": 2013, "last_active_year": 2024, "priority": 1, "notes": null }, "geometry": { "type": "Polygon", "coordinates": [ [ [ 591553.197796657448635, 8722974.026856390759349 ], [ 593795.750717798015103, 8724550.821879068389535 ], [ 591097.679234550683759, 8726872.214551342651248 ], [ 589590.963990659336559, 8725645.818422593176365 ], [ 591553.197796657448635, 8722974.026856390759349 ] ] ] } },
{ "type": "Feature", "properties": { "fix_id": 143743, "rgi_id": "RGI2000-v7.0-G-07-00354", "fix_type": "tidewater_extension", "first_active_year": 2013, "last_active_year": 2024, "priority": 1, "notes": null }, "geometry": { "type": "Polygon", "coordinates": [ [ [ 479565.711297198722605, 8711822.582057124003768 ], [ 480643.187896027986426, 8710972.864739347249269 ], [ 481343.985683884471655, 8710946.584822302684188 ], [ 481869.584024776762817, 8710692.545624203979969 ], [ 482263.782780445995741, 8710666.265707159414887 ], [ 482438.9822274101316, 8710499.826232543215156 ], [ 482666.74150846345583, 8710482.306287847459316 ], [ 482850.700927775760647, 8710613.705873070284724 ], [ 483008.380430043500382, 8710561.146038981154561 ], [ 483288.699545186071191, 8710464.786343151703477 ], [ 483612.818522069661412, 8710508.586204892024398 ], [ 483814.297886078362353, 8710561.146038981154561 ], [ 484480.055784541880712, 8710876.505043517798185 ], [ 484944.334318996814545, 8710902.784960562363267 ], [ 485303.493185273197014, 8710981.624711696058512 ], [ 485373.572964058839716, 8711060.464462829753757 ], [ 485715.211885638884269, 8711594.822776069864631 ], [ 484602.695397416769993, 8713557.056582067161798 ], [ 483393.81921336450614, 8713491.356789458543062 ], [ 483131.020042918331455, 8713451.936913890764117 ], [ 482986.480499172932468, 8713320.537328667938709 ], [ 482754.341231945494656, 8713294.257411623373628 ], [ 482605.421702025982086, 8713403.757065976038575 ], [ 482386.422393320826814, 8713570.196540592238307 ], [ 482123.623222874710336, 8713802.33580781891942 ], [ 481812.644204513519071, 8713990.675213305279613 ], [ 481475.385269107588101, 8714161.494674095883965 ], [ 481164.406250746280421, 8714341.074107233434916 ], [ 480822.767329166119453, 8714722.132904380559921 ], [ 480354.108808537130244, 8715098.811715353280306 ], [ 479565.711297198722605, 8711822.582057124003768 ] ] ] } },
{ "type": "Feature", "properties": { "fix_id": 808765, "rgi_id": "RGI2000-v7.0-G-07-00969", "fix_type": "tidewater_extension", "first_active_year": 2013, "last_active_year": 2024, "priority": 1, "notes": null }, "geometry": { "type": "Polygon", "coordinates": [ [ [ 576527.65522639779374, 8642548.720727512612939 ], [ 576930.531659258762375, 8642495.070890229195356 ], [ 577322.622716997517273, 8642391.041225245222449 ], [ 578496.45901165693067, 8642951.67945552803576 ], [ 578373.819398782099597, 8644405.83486533164978 ], [ 577900.780891978996806, 8645019.032929705455899 ], [ 577633.601735358824953, 8645286.212086327373981 ], [ 577552.630578042473644, 8645323.061047999188304 ], [ 577423.362399001955055, 8645343.151906590908766 ], [ 577221.883034993195906, 8645343.151906590908766 ], [ 576950.323892198852263, 8645347.531892763450742 ], [ 576818.924306975677609, 8645338.771920416504145 ], [ 576687.524721752619371, 8645312.492003371939063 ], [ 576525.46523331082426, 8645264.312155455350876 ], [ 576350.265786346746609, 8645102.252667013555765 ], [ 576224.341183835058473, 8644886.812097057700157 ], [ 576228.721170009230264, 8644129.074488937854767 ], [ 576527.65522639779374, 8642548.720727512612939 ] ] ] } },
{ "type": "Feature", "properties": { "fix_id": 460373, "rgi_id": "RGI2000-v7.0-G-07-00755", "fix_type": "tidewater_extension", "first_active_year": 2013, "last_active_year": 2024, "priority": 1, "notes": null }, "geometry": { "type": "Polygon", "coordinates": [ [ [ 570393.484589566825889, 8609370.325458683073521 ], [ 570159.816256206133403, 8608514.848323525860906 ], [ 569447.407575960620306, 8607977.489855319261551 ], [ 568391.830908001633361, 8609120.666246760636568 ], [ 568365.550990957068279, 8609199.505997894331813 ], [ 568365.550990957068279, 8609252.065831983461976 ], [ 568339.271073912503198, 8609287.1057213768363 ], [ 569065.069410454947501, 8610195.138856204226613 ], [ 569587.567133531905711, 8610294.502541419118643 ], [ 570393.484589566825889, 8609370.325458683073521 ] ] ] } },
{ "type": "Feature", "properties": { "fix_id": 7544, "rgi_id": "RGI2000-v7.0-G-07-00751", "fix_type": "tidewater_extension", "first_active_year": 2013, "last_active_year": 2024, "priority": 1, "notes": null }, "geometry": { "type": "Polygon", "coordinates": [ [ [ 568052.381979508674704, 8609298.055686812847853 ], [ 568339.271073912503198, 8609287.1057213768363 ], [ 568573.16233617218677, 8609579.722837435081601 ], [ 569065.069410454947501, 8610195.138856204226613 ], [ 569058.683803008752875, 8610284.647572530433536 ], [ 568337.081080825184472, 8610956.975450254976749 ], [ 567601.243403575965203, 8610790.535975638777018 ], [ 567382.244094870868139, 8610545.256749888882041 ], [ 567318.849036380997859, 8610369.122090373188257 ], [ 567340.634226216934621, 8610175.147918177768588 ], [ 568052.381979508674704, 8609298.055686812847853 ] ] ] } },
{ "type": "Feature", "properties": { "fix_id": 234630, "rgi_id": "RGI2000-v7.0-G-07-00749", "fix_type": "partition_override", "first_active_year": 2013, "last_active_year": 2024, "priority": 2, "notes": null }, "geometry": { "type": "Polygon", "coordinates": [ [ [ 558444.882306614541449, 8614493.814285837113857 ], [ 558952.960702810436487, 8613784.256525633856654 ], [ 560126.7969974699663, 8612592.900286277756095 ], [ 560661.155310710542835, 8611909.622443117201328 ], [ 561248.073458040249534, 8611620.543355626985431 ], [ 561738.631909539806657, 8611156.264821171760559 ], [ 562461.3296282668598, 8610345.96737896092236 ], [ 562677.043947335332632, 8610486.400685656815767 ], [ 563332.946876913192682, 8610503.646881230175495 ], [ 563093.133877400425263, 8610882.295863816514611 ], [ 562678.718957431381568, 8611421.026806248351932 ], [ 562035.20979860285297, 8611981.479935789480805 ], [ 561453.955309457844123, 8612500.460266089066863 ], [ 561047.36734184785746, 8612822.357524825260043 ], [ 560955.733235009829514, 8612894.90459986962378 ], [ 560987.464280681218952, 8613227.998281519860029 ], [ 558444.882306614541449, 8614493.814285837113857 ] ] ] } },
{ "type": "Feature", "properties": { "fix_id": 828701, "rgi_id": "RGI2000-v7.0-G-07-00749", "fix_type": "tidewater_extension", "first_active_year": 2013, "last_active_year": 2024, "priority": 1, "notes": null }, "geometry": { "type": "Polygon", "coordinates": [ [ [ 560107.087059686658904, 8614220.065149955451488 ], [ 560842.924736935994588, 8612695.829961366951466 ], [ 563470.916441397625022, 8610155.437980387359858 ], [ 564872.512017110479064, 8612047.592007599771023 ], [ 564890.03196180681698, 8612336.67109508998692 ], [ 564583.432929619564675, 8612652.0300996247679 ], [ 564355.673648566240445, 8612888.549353027716279 ], [ 564127.914367512916215, 8613142.588551124557853 ], [ 563926.435003504157066, 8613405.387721570208669 ], [ 563777.515473584760912, 8613641.906974973157048 ], [ 563505.956330790300854, 8613904.706145418807864 ], [ 563234.397187995957211, 8614071.145620035007596 ], [ 562840.198432326666079, 8614465.344375705346465 ], [ 562559.879317184095271, 8614728.143546150997281 ], [ 562340.880008478998207, 8614929.622910160571337 ], [ 562165.680561514920555, 8615166.142163561657071 ], [ 562043.040948639973067, 8615332.581638177856803 ], [ 561560.147472939104773, 8615558.424675267189741 ], [ 560570.270597591879778, 8615015.306389678269625 ], [ 560107.087059686658904, 8614220.065149955451488 ] ] ] } },
{ "type": "Feature", "properties": { "fix_id": 100469, "rgi_id": "RGI2000-v7.0-G-07-01312", "fix_type": "tidewater_extension", "first_active_year": 2013, "last_active_year": 2024, "priority": 1, "notes": null }, "geometry": { "type": "Polygon", "coordinates": [ [ [ 435058.481789053592365, 8809979.167215295135975 ], [ 433753.245909170946106, 8809164.4897869117558 ], [ 432018.771384226274677, 8810154.366662260144949 ], [ 432472.64745151338866, 8811380.48904187604785 ], [ 433742.843442003184464, 8811266.609401348978281 ], [ 435058.481789053592365, 8809979.167215295135975 ] ] ] } },
{ "type": "Feature", "properties": { "fix_id": 809116, "rgi_id": "RGI2000-v7.0-G-07-00054", "fix_type": "tidewater_extension", "first_active_year": 2013, "last_active_year": 2024, "priority": 1, "notes": null }, "geometry": { "type": "Polygon", "coordinates": [ [ [ 447555.677340311929584, 8828395.914080856367946 ], [ 447529.466355125012342, 8828491.212269024923444 ], [ 447520.256125789135695, 8828500.447229588404298 ], [ 447489.269410452456214, 8828567.517291294410825 ], [ 447483.26313658466097, 8828570.377676092088223 ], [ 447380.851501073979307, 8828619.149459013715386 ], [ 447580.862260813068133, 8829367.1760149654001 ], [ 449639.455762641329784, 8829735.094853589311242 ], [ 450734.452306167047936, 8829218.256485044956207 ], [ 450980.279030184843577, 8828440.535190001130104 ], [ 449293.984353155421559, 8828085.75630989857018 ], [ 447555.677340311929584, 8828395.914080856367946 ] ] ] } },
{ "type": "Feature", "properties": { "fix_id": 414520, "rgi_id": "RGI2000-v7.0-G-07-01225", "fix_type": "tidewater_extension", "first_active_year": 2013, "last_active_year": 2024, "priority": 1, "notes": null }, "geometry": { "type": "Polygon", "coordinates": [ [ [ 445452.188980198639911, 8832355.969080522656441 ], [ 446275.626380929956213, 8832224.569495299831033 ], [ 446503.385661983280443, 8832193.90959208086133 ], [ 446809.98469417047454, 8832228.949481474235654 ], [ 446976.424168786383234, 8832299.029260259121656 ], [ 447064.02389226842206, 8832320.929191129282117 ], [ 447156.003601924574468, 8832487.368665745481849 ], [ 447313.683104192255996, 8832868.427462892606854 ], [ 447160.383588098688051, 8833030.486951334401965 ], [ 447007.084072005120106, 8833144.366591861471534 ], [ 446788.084763299964834, 8833196.926425950601697 ], [ 446499.00567580916686, 8833249.48626003973186 ], [ 446258.106436233501881, 8833288.906135607510805 ], [ 445999.687251961440779, 8833284.526149433106184 ], [ 445837.627763519645669, 8833262.626218562945724 ], [ 445548.548676028905902, 8833192.546439776197076 ], [ 445452.188980198639911, 8832355.969080522656441 ] ] ] } },
{ "type": "Feature", "properties": { "fix_id": 50481, "rgi_id": "RGI2000-v7.0-G-07-00748", "fix_type": "tidewater_extension", "first_active_year": 2013, "last_active_year": 2024, "priority": 1, "notes": null }, "geometry": { "type": "Polygon", "coordinates": [ [ [ 551404.054531743633561, 8632768.759099006652832 ], [ 550778.020495320903137, 8632908.788544669747353 ], [ 550370.598678042413667, 8633225.344147998839617 ], [ 550260.87814030284062, 8633517.73673477768898 ], [ 550641.936937449732795, 8633907.555504273623228 ], [ 551044.895665467018262, 8634704.712987959384918 ], [ 551327.404773696791381, 8634641.203188434243202 ], [ 551533.264123879605904, 8634507.613610124215484 ], [ 552293.191725086304359, 8634021.435144800692797 ], [ 552617.310701969894581, 8633846.235697837546468 ], [ 552770.610218063578941, 8633307.497398421168327 ], [ 551404.054531743633561, 8632768.759099006652832 ] ] ] } },
{ "type": "Feature", "properties": { "fix_id": 739210, "rgi_id": "RGI2000-v7.0-G-07-00741", "fix_type": "land_extension+tidewater_extension", "first_active_year": 2019, "last_active_year": 2024, "priority": 1, "notes": null }, "geometry": { "type": "Polygon", "coordinates": [ [ [ 547179.557866821298376, 8625274.60275511443615 ], [ 547144.517977428389713, 8626352.07935394346714 ], [ 547249.63764560688287, 8627114.196948237717152 ], [ 547310.957452044356614, 8627701.115095566958189 ], [ 547433.597064919187687, 8628209.193491762503982 ], [ 547573.756622490473092, 8628682.231998566538095 ], [ 547924.155516418628395, 8629041.390864841639996 ], [ 548195.714659213088453, 8629391.789758769795299 ], [ 548405.953995569958352, 8630066.307629581540823 ], [ 548843.952612980268896, 8630959.824809098616242 ], [ 548992.872142899781466, 8631441.623288249596953 ], [ 549194.351506908307783, 8632081.101269669830799 ], [ 549448.39070500631351, 8632668.019416999071836 ], [ 549676.14998605963774, 8633246.177591981366277 ], [ 549886.389322416624054, 8633535.256679471582174 ], [ 550166.708437559194863, 8633500.21679007820785 ], [ 550306.867995130480267, 8633789.295877570286393 ], [ 550157.948465210967697, 8634183.494633238762617 ], [ 549500.950539095560089, 8634963.132172228768468 ], [ 548730.072972453432158, 8635164.611536238342524 ], [ 548081.835018686251715, 8635129.5716468449682 ], [ 547836.555792936473154, 8634971.89214457757771 ], [ 547670.116318320622668, 8634700.333001783117652 ], [ 547775.235986499115825, 8634341.174135506153107 ], [ 547871.595682329381816, 8634043.335075667127967 ], [ 548046.795129293459468, 8633701.696154087781906 ], [ 548081.835018686251715, 8633272.457509025931358 ], [ 548020.515212248777971, 8632887.018725704401731 ], [ 547836.555792936473154, 8632343.900440115481615 ], [ 547652.596373624168336, 8631914.661795053631067 ], [ 547433.597064919071272, 8631196.344062501564622 ], [ 547214.597756213974208, 8630705.785611001774669 ], [ 547091.958143339143135, 8630364.146689422428608 ], [ 546943.038613419630565, 8630031.267740190029144 ], [ 546496.280023661092855, 8629409.309703467413783 ], [ 546329.840549045242369, 8625406.002340337261558 ], [ 547179.557866821298376, 8625274.60275511443615 ] ] ] } },
{ "type": "Feature", "properties": { "fix_id": 484184, "rgi_id": "RGI2000-v7.0-G-07-00876", "fix_type": "tidewater_extension", "first_active_year": 2013, "last_active_year": 2024, "priority": 1, "notes": null }, "geometry": { "type": "Polygon", "coordinates": [ [ [ 492280.811160617391579, 8599152.365212759003043 ], [ 492166.931520090729464, 8599634.163691909983754 ], [ 492298.331105313787702, 8600054.64236462302506 ], [ 493770.006459812168032, 8600755.440152481198311 ], [ 494409.484441231237724, 8600580.240705516189337 ], [ 494689.803556373808533, 8600571.480733167380095 ], [ 494882.522948034340516, 8600597.760650211945176 ], [ 495022.68250560562592, 8600431.321175595745444 ], [ 495495.721012408728711, 8600124.722143409773707 ], [ 495670.920459372806363, 8599870.682945311069489 ], [ 495846.119906336942222, 8599564.083913123235106 ], [ 496003.79940860462375, 8599196.165074499323964 ], [ 496231.55868965794798, 8598714.366595348343253 ], [ 496450.557998363103252, 8598363.96770142018795 ], [ 496117.679049131227657, 8596927.332236312329769 ], [ 492280.811160617391579, 8599152.365212759003043 ] ] ] } },
{ "type": "Feature", "properties": { "fix_id": 192831, "rgi_id": "RGI2000-v7.0-G-07-00889", "fix_type": "land_extension", "first_active_year": 2013, "last_active_year": 2024, "priority": 1, "notes": null }, "geometry": { "type": "Polygon", "coordinates": [ [ [ 515083.019182996184099, 8601210.95871458388865 ], [ 514453.757479671447072, 8601700.403643373399973 ], [ 514027.442515037371777, 8603692.220882212743163 ], [ 514290.241685483546462, 8604025.099831445142627 ], [ 514798.3200816794415, 8603955.020052660256624 ], [ 515061.119252125616185, 8604112.699554927647114 ], [ 515464.077980143076275, 8604357.97878067754209 ], [ 515674.317316500004381, 8604287.899001890793443 ], [ 515796.956929374893662, 8603814.860495088621974 ], [ 516129.835878606711049, 8603587.101214034482837 ], [ 516322.555270267243031, 8603026.462983749806881 ], [ 516322.555270267243031, 8602711.103979215025902 ], [ 516480.234772534924559, 8602027.826136054471135 ], [ 516585.354440713359509, 8601572.307573948055506 ], [ 516795.593777070287615, 8600766.390117911621928 ], [ 516883.193500552384648, 8600170.711998235434294 ], [ 516988.313168730819598, 8599399.83443159237504 ], [ 517093.432836909312755, 8598576.397030862048268 ], [ 517128.472726302105002, 8596631.683169558644295 ], [ 516851.438600785739254, 8595826.58696093596518 ], [ 516225.10057788901031, 8596198.885785734280944 ], [ 516007.19626573176356, 8596333.844109719619155 ], [ 515083.019182996184099, 8601210.95871458388865 ] ] ] } },
{ "type": "Feature", "properties": { "fix_id": 209515, "rgi_id": "RGI2000-v7.0-G-07-00888", "fix_type": "land_extension", "first_active_year": 2013, "last_active_year": 2024, "priority": 1, "notes": null }, "geometry": { "type": "Polygon", "coordinates": [ [ [ 514461.061146273626946, 8600433.51116868108511 ], [ 514482.961077144136652, 8601221.908680019900203 ], [ 514453.757479671447072, 8601700.403643373399973 ], [ 514027.442515037371777, 8603692.220882212743163 ], [ 513706.608527784410398, 8603636.376058490946889 ], [ 513513.889136123878416, 8603575.056252054870129 ], [ 513470.089274382859003, 8603356.056943349540234 ], [ 513513.889136123878416, 8603145.817606993019581 ], [ 513496.369191427482292, 8602821.698630109429359 ], [ 513417.529440293612424, 8602585.17937670648098 ], [ 513347.449661507969722, 8602366.180068001151085 ], [ 513557.688997864897829, 8601989.5012570284307 ], [ 513645.288721346936654, 8601682.902224842458963 ], [ 513566.448970213124994, 8601350.0232756100595 ], [ 513496.369191427482292, 8600859.464824110269547 ], [ 513531.409080820274539, 8600447.746123746037483 ], [ 513513.889136123878416, 8600123.627146862447262 ], [ 513689.088583088014275, 8599746.948335889726877 ], [ 513873.048002400319092, 8599431.589331353083253 ], [ 513811.728195962845348, 8598967.310796897858381 ], [ 513776.688306570053101, 8598599.391958273947239 ], [ 513697.848555436183233, 8598003.713838595896959 ], [ 513662.808666043390986, 8597548.19527648948133 ], [ 513575.208942561293952, 8596540.798456445336342 ], [ 514109.56725580181228, 8596751.03779280371964 ], [ 514258.48678572132485, 8598310.312870783731341 ], [ 514538.805900863895658, 8599869.587948763743043 ], [ 514461.061146273626946, 8600433.51116868108511 ] ] ] } },
{ "type": "Feature", "properties": { "fix_id": 911585, "rgi_id": "RGI2000-v7.0-G-07-00774", "fix_type": "tidewater_extension", "first_active_year": 2013, "last_active_year": 2024, "priority": 1, "notes": null }, "geometry": { "type": "Polygon", "coordinates": [ [ [ 555623.076213947148062, 8562893.744666984304786 ], [ 557147.311402534833178, 8563156.543837429955602 ], [ 557848.109190391260199, 8563690.902150670066476 ], [ 557471.430379418423399, 8565162.577505169436336 ], [ 556866.992287392262369, 8565171.337477516382933 ], [ 556534.113338160444982, 8565048.697864642366767 ], [ 555509.19657342042774, 8565136.297588124871254 ], [ 555623.076213947148062, 8562893.744666984304786 ] ] ] } },
{ "type": "Feature", "properties": { "fix_id": 56728, "rgi_id": "RGI2000-v7.0-G-07-00770", "fix_type": "tidewater_extension", "first_active_year": 2013, "last_active_year": 2024, "priority": 1, "notes": null }, "geometry": { "type": "Polygon", "coordinates": [ [ [ 556761.872619213885628, 8570611.280305752530694 ], [ 557900.669024480623193, 8570085.681964859366417 ], [ 558415.317399937543087, 8570081.301978686824441 ], [ 558724.106425211881287, 8570420.750907180830836 ], [ 558732.866397559992038, 8571892.426261678338051 ], [ 558081.68946740636602, 8571970.439510330557823 ], [ 557707.94963282009121, 8571855.196379199624062 ], [ 556761.872619213885628, 8570611.280305752530694 ] ] ] } },
{ "type": "Feature", "properties": { "fix_id": 955177, "rgi_id": "RGI2000-v7.0-G-07-00803", "fix_type": "land_extension", "first_active_year": 2013, "last_active_year": 2024, "priority": 1, "notes": null }, "geometry": { "type": "Polygon", "coordinates": [ [ [ 528699.301201737718657, 8524838.234793294221163 ], [ 528970.8603445320623, 8524207.516784224659204 ], [ 528471.541920684394427, 8523349.039494099095464 ], [ 528182.462833193596452, 8522814.68118085898459 ], [ 527788.264077524305321, 8522639.481733895838261 ], [ 527394.065321855130605, 8522674.521623287349939 ], [ 527026.146483230404556, 8522989.880627823993564 ], [ 526754.587340436060913, 8523147.560130091384053 ], [ 526456.748280597035773, 8523357.799466447904706 ], [ 526299.068778329412453, 8523646.878553938120604 ], [ 526237.748971891938709, 8523988.517475519329309 ], [ 526228.988999543711543, 8524391.476203536614776 ], [ 526666.987616954022087, 8525057.234101999551058 ], [ 528699.301201737718657, 8524838.234793294221163 ] ] ] } },
{ "type": "Feature", "properties": { "fix_id": 772437, "rgi_id": "RGI2000-v7.0-G-07-00899", "fix_type": "land_extension+tidewater_extension", "first_active_year": 2013, "last_active_year": 2024, "priority": 1, "notes": null }, "geometry": { "type": "Polygon", "coordinates": [ [ [ 528289.772494459059089, 8590511.747487796470523 ], [ 528759.080941414111294, 8591104.86324056610465 ], [ 528552.571664905291982, 8593433.198265925049782 ], [ 528570.091609601746313, 8594379.275279531255364 ], [ 528333.572356200078502, 8595754.590938199311495 ], [ 527780.848696515662596, 8597332.303825624287128 ], [ 527089.656282754964195, 8598557.782089624553919 ], [ 525907.060015747207217, 8600178.376974042505026 ], [ 524865.710251405020244, 8601411.729551419615746 ], [ 523464.807099976984318, 8602618.89077764749527 ], [ 521631.710423108364921, 8603719.245557935908437 ], [ 521385.807210357743315, 8603823.568133041262627 ], [ 521185.434920064406469, 8602832.648595549166203 ], [ 522867.349610919889528, 8601080.654125908389688 ], [ 523603.187288169108797, 8599810.458135418593884 ], [ 524268.945186632685363, 8599022.06062407977879 ], [ 524671.903914650087245, 8598251.183057438582182 ], [ 525276.34200667636469, 8597436.505629055202007 ], [ 525907.060015747090802, 8596140.029721518978477 ], [ 526204.899075586115941, 8595535.5916294939816 ], [ 526423.898384291213006, 8594852.313786333426833 ], [ 526362.578577853855677, 8593643.437602279707789 ], [ 526257.458909675478935, 8592732.400478066876531 ], [ 526318.778716112836264, 8592040.362662559375167 ], [ 525985.899766881018877, 8591287.005040612071753 ], [ 526423.898384291329421, 8590446.047695184126496 ], [ 526572.817914210841991, 8589657.650183845311403 ], [ 528289.772494459059089, 8590511.747487796470523 ] ] ] } },
{ "type": "Feature", "properties": { "fix_id": 401582, "rgi_id": "RGI2000-v7.0-G-07-00902", "fix_type": "tidewater_extension", "first_active_year": 2013, "last_active_year": 2024, "priority": 1, "notes": null }, "geometry": { "type": "Polygon", "coordinates": [ [ [ 530216.966411063796841, 8588694.053225547075272 ], [ 530484.145567684201524, 8590152.588621525093913 ], [ 530533.050719369319268, 8590246.765204470604658 ], [ 530317.706093068234622, 8591308.904971487820148 ], [ 530212.586424889741465, 8592360.101653272286057 ], [ 530063.666894970228896, 8594006.976454734802246 ], [ 530019.867033229209483, 8595942.930343687534332 ], [ 529949.787254443624988, 8597300.726057659834623 ], [ 529730.787945738527924, 8598132.923430738970637 ], [ 529494.268692336976528, 8599149.080223130062222 ], [ 529462.763387371087447, 8599574.856746764853597 ], [ 529196.429632498067804, 8599876.157928032800555 ], [ 528218.84731392597314, 8600328.214368710294366 ], [ 527058.996379535878077, 8601295.273448441177607 ], [ 525902.68002957268618, 8602171.270683262497187 ], [ 525205.41682614327874, 8602675.886958029121161 ], [ 524311.899646626319736, 8603797.163418600335717 ], [ 522927.824015609861817, 8605023.559547347947955 ], [ 521566.493717211124022, 8604212.344240391626954 ], [ 521385.807210357743315, 8603823.568133041262627 ], [ 521631.710423108364921, 8603719.245557935908437 ], [ 523464.807099976984318, 8602618.89077764749527 ], [ 524865.710251405020244, 8601411.729551419615746 ], [ 525907.060015747207217, 8600178.376974042505026 ], [ 527089.656282754964195, 8598557.782089624553919 ], [ 527780.848696515662596, 8597332.303825624287128 ], [ 528333.572356200078502, 8595754.590938199311495 ], [ 528570.091609601746313, 8594379.275279531255364 ], [ 528552.571664905291982, 8593433.198265925049782 ], [ 528759.080941414111294, 8591104.86324056610465 ], [ 528794.018402752350084, 8591023.658371895551682 ], [ 530216.966411063796841, 8588694.053225547075272 ] ] ] } },
{ "type": "Feature", "properties": { "fix_id": 158872, "rgi_id": "RGI2000-v7.0-G-07-00913", "fix_type": "tidewater_extension", "first_active_year": 2013, "last_active_year": 2024, "priority": 1, "notes": null }, "geometry": { "type": "Polygon", "coordinates": [ [ [ 532145.255324212834239, 8591285.910044068470597 ], [ 532263.727020596270449, 8592115.844821665436029 ], [ 531840.846285112784244, 8593677.382495125755668 ], [ 531770.766506327083334, 8594395.700227677822113 ], [ 531718.206672237836756, 8595096.498015534132719 ], [ 531788.286451023537666, 8595832.335692783817649 ], [ 532103.645455558900721, 8596655.773093516007066 ], [ 532751.88340932619758, 8597409.130715461447835 ], [ 533417.641307789715938, 8597803.329471129924059 ], [ 533925.719703985727392, 8598144.96839270927012 ], [ 534118.439095646259375, 8599056.005516923964024 ], [ 534083.399206253467128, 8599660.4436089489609 ], [ 533938.859662507311441, 8600608.710615634918213 ], [ 533588.460768579039723, 8600563.815757352858782 ], [ 533273.101764043676667, 8600572.575729701668024 ], [ 533115.422261775936931, 8600695.21534257568419 ], [ 532966.502731856540777, 8600844.134872496128082 ], [ 532502.224197401548736, 8601089.414098246023059 ], [ 532094.885483210673556, 8601175.918825190514326 ], [ 531875.886174505576491, 8601342.358299804851413 ], [ 531595.567059363005683, 8601622.677414948120713 ], [ 531271.448082479415461, 8601876.716613046824932 ], [ 530693.289907497819513, 8602034.396115314215422 ], [ 530299.091151828644797, 8601964.316336527466774 ], [ 530071.331870775204152, 8601902.996530091390014 ], [ 529948.692257900373079, 8602113.235866447910666 ], [ 529624.573281016782857, 8601973.076308876276016 ], [ 529440.61386170447804, 8601867.95664069801569 ], [ 529055.175078383414075, 8601876.716613046824932 ], [ 528590.896543928538449, 8602008.11619826965034 ], [ 527732.419253804488108, 8602183.315645232796669 ], [ 527373.260387527989224, 8602253.395424019545317 ], [ 527084.181300037191249, 8602481.154705071821809 ], [ 526830.142101939301938, 8602910.393350133672357 ], [ 526295.783788698725402, 8603514.831442160531878 ], [ 526098.934005660237744, 8604130.042367830872536 ], [ 525713.495222339173779, 8604357.801648885011673 ], [ 525328.056439018109813, 8604445.40137236751616 ], [ 525082.777213268447667, 8604357.801648885011673 ], [ 524732.378319340175949, 8604410.361482974141836 ], [ 524399.499370108358562, 8604690.680598117411137 ], [ 523856.381084519613069, 8605426.518275365233421 ], [ 523576.06196937704226, 8605373.958441276103258 ], [ 523173.103241359582171, 8605286.358717795461416 ], [ 522927.824015609861817, 8605023.559547347947955 ], [ 524311.899646626319736, 8603797.163418600335717 ], [ 525205.41682614327874, 8602675.886958029121161 ], [ 525902.68002957268618, 8602171.270683262497187 ], [ 527058.996379535878077, 8601295.273448441177607 ], [ 528218.84731392597314, 8600328.214368710294366 ], [ 529196.429632498067804, 8599876.157928032800555 ], [ 529462.763387371087447, 8599574.856746764853597 ], [ 529494.268692336976528, 8599149.080223130062222 ], [ 529730.787945738527924, 8598132.923430738970637 ], [ 529949.787254443624988, 8597300.726057659834623 ], [ 530019.867033229209483, 8595942.930343687534332 ], [ 530063.666894970228896, 8594006.976454734802246 ], [ 530212.586424889741465, 8592360.101653272286057 ], [ 530317.706093068234622, 8591308.904971487820148 ], [ 530533.050719369319268, 8590246.765204470604658 ], [ 530734.899776151636615, 8590063.893901485949755 ], [ 532145.255324212834239, 8591285.910044068470597 ] ] ] } },
{ "type": "Feature", "properties": { "fix_id": 489129, "rgi_id": "RGI2000-v7.0-G-07-00909", "fix_type": "partition_override+land_extension", "first_active_year": 2013, "last_active_year": 2024, "priority": 2, "notes": null }, "geometry": { "type": "Polygon", "coordinates": [ [ [ 541450.53595109411981, 8594647.549432685598731 ], [ 539610.941757970955223, 8594630.029487989842892 ], [ 538927.663914810866117, 8595032.988216007128358 ], [ 538069.186624686699361, 8595646.186280380934477 ], [ 537420.948670919518918, 8595979.065229613333941 ], [ 536509.911546706221998, 8596031.625063702464104 ], [ 535826.633703546132892, 8595751.305948559194803 ], [ 535213.435639171744697, 8595593.626446291804314 ], [ 533776.800174066098407, 8595400.9070546310395 ], [ 533654.160561191150919, 8596224.344455363228917 ], [ 533741.76028467330616, 8596749.942796256393194 ], [ 534092.159178601461463, 8597380.660805325955153 ], [ 534407.518183136708103, 8598151.538371969014406 ], [ 534389.998238440370187, 8598677.136712860316038 ], [ 534477.597961922409013, 8598939.935883305966854 ], [ 534687.837298279395327, 8599588.173837073147297 ], [ 534880.556689939810894, 8600481.691016590222716 ], [ 535318.555307350121439, 8600884.649744607508183 ], [ 536054.392984599340707, 8601164.968859750777483 ], [ 536141.992708081495948, 8600621.850574161857367 ], [ 536247.11237625987269, 8600481.691016590222716 ], [ 536422.311823224066757, 8600639.370518857613206 ], [ 536509.911546706105582, 8601007.289357483386993 ], [ 536755.190772455884144, 8600972.24946809001267 ], [ 536755.190772455884144, 8600621.850574161857367 ], [ 536702.630938366637565, 8600271.451680233702064 ], [ 536842.790495937922969, 8600113.772177966311574 ], [ 537526.06833909789566, 8599886.012896912172437 ], [ 537876.467233026167378, 8599693.293505251407623 ], [ 538261.906016347114928, 8599658.253615859895945 ], [ 538507.185242096893489, 8599342.89461132325232 ], [ 539102.863361774943769, 8598764.736436342820525 ], [ 539926.300762506201863, 8598204.098206058144569 ], [ 540592.058660969836637, 8597608.42008638009429 ], [ 541906.054513200651854, 8596417.063847023993731 ], [ 541450.53595109411981, 8594647.549432685598731 ] ] ] } },
{ "type": "Feature", "properties": { "fix_id": 825978, "rgi_id": "RGI2000-v7.0-G-07-00912", "fix_type": "partition_override+land_extension", "first_active_year": 2013, "last_active_year": 2024, "priority": 3, "notes": null }, "geometry": { "type": "Polygon", "coordinates": [ [ [ 535506.894712836132385, 8587674.611443510279059 ], [ 535138.975874211406335, 8589067.447046875953674 ], [ 534876.176703765289858, 8589663.125166554003954 ], [ 534858.656759068835527, 8589855.844558212906122 ], [ 534648.417422711965628, 8590486.562567284330726 ], [ 534227.938749998109415, 8590863.24137825705111 ], [ 533921.33971781085711, 8591091.000659311190248 ], [ 533570.940823882585391, 8591853.118253605440259 ], [ 533369.461459873826243, 8592536.39609676413238 ], [ 533176.742068213410676, 8593000.674631219357252 ], [ 533176.742068213410676, 8593570.07283385284245 ], [ 532922.702870115404949, 8594060.631285352632403 ], [ 532800.063257240573876, 8594568.709681548178196 ], [ 532948.98278715997003, 8595243.22755235992372 ], [ 533185.502040561521426, 8595348.347220538184047 ], [ 533684.820464409189299, 8595383.387109931558371 ], [ 533776.800174066098407, 8595400.9070546310395 ], [ 533654.160561191150919, 8596224.344455363228917 ], [ 533741.76028467330616, 8596749.942796256393194 ], [ 534092.159178601461463, 8597380.660805325955153 ], [ 534407.518183136708103, 8598151.538371969014406 ], [ 534389.998238440370187, 8598677.136712860316038 ], [ 534477.597961922409013, 8598939.935883305966854 ], [ 534626.107551498920657, 8599397.840451166033745 ], [ 534687.837298279395327, 8599588.173837073147297 ], [ 534738.521237850887701, 8599823.163011450320482 ], [ 534880.556689939810894, 8600481.691016590222716 ], [ 535318.555307350121439, 8600884.649744607508183 ], [ 534941.876496376818977, 8601037.949260696768761 ], [ 534587.097616274491884, 8600818.949951991438866 ], [ 534284.878570261411369, 8600674.410408247262239 ], [ 533938.859662507311441, 8600608.710615634918213 ], [ 534004.559455119539052, 8600177.281977493315935 ], [ 534083.399206253467128, 8599660.4436089489609 ], [ 534118.439095646259375, 8599056.005516923964024 ], [ 533925.719703985727392, 8598144.96839270927012 ], [ 533417.641307789715938, 8597803.329471129924059 ], [ 532751.88340932619758, 8597409.130715461447835 ], [ 532103.645455558900721, 8596655.773093516007066 ], [ 531788.286451023537666, 8595832.335692783817649 ], [ 531718.206672237836756, 8595096.498015534132719 ], [ 531770.766506327083334, 8594395.700227677822113 ], [ 531840.846285112784244, 8593677.382495125755668 ], [ 532263.727020596270449, 8592115.844821665436029 ], [ 532437.619401333620772, 8591802.748412603512406 ], [ 534690.027291365899146, 8587857.47586628049612 ], [ 535506.894712836132385, 8587674.611443510279059 ] ] ] } },
{ "type": "Feature", "properties": { "fix_id": 566354, "rgi_id": "RGI2000-v7.0-G-07-01531", "fix_type": "tidewater_extension", "first_active_year": 2013, "last_active_year": 2024, "priority": 1, "notes": null }, "geometry": { "type": "Polygon", "coordinates": [ [ [ 713308.05346436239779, 8641910.885240882635117 ], [ 716636.842956680455245, 8641245.127342419698834 ], [ 718844.355988428229466, 8644819.196060488000512 ], [ 718564.036873285658658, 8649094.062566410750151 ], [ 715480.526606717263348, 8651441.73515573143959 ], [ 710680.061759900767356, 8650565.73792091012001 ], [ 713308.05346436239779, 8641910.885240882635117 ] ] ] } },
{ "type": "Feature", "properties": { "fix_id": 538935, "rgi_id": "RGI2000-v7.0-G-07-01531", "fix_type": "partition_override", "first_active_year": 2013, "last_active_year": 2024, "priority": 2, "notes": null }, "geometry": { "type": "Polygon", "coordinates": [ [ [ 704793.360341906896792, 8640877.208503795787692 ], [ 704705.760618424741551, 8638512.015969779342413 ], [ 704320.321835103794001, 8637530.899066781625152 ], [ 703444.324600283172913, 8637145.460283460095525 ], [ 702690.966978337499313, 8636952.740891799330711 ], [ 702042.72902457031887, 8636795.061389531940222 ], [ 701814.96974351699464, 8636392.102661514654756 ], [ 701602.796062885783613, 8636142.523201188072562 ], [ 700775.476080341264606, 8637010.192841291427612 ], [ 700230.656596540939063, 8637635.72130075097084 ], [ 699504.25028781790752, 8638584.075231470167637 ], [ 698717.285579738905653, 8639431.559522433206439 ], [ 698107.781137357698753, 8640102.025624187663198 ], [ 698412.267984507954679, 8640863.247297884896398 ], [ 699502.337043590727262, 8641017.368061367422342 ], [ 704793.360341906896792, 8640877.208503795787692 ] ] ] } },
{ "type": "Feature", "properties": { "fix_id": 43663, "rgi_id": "RGI2000-v7.0-G-07-00808", "fix_type": "tidewater_extension", "first_active_year": 2013, "last_active_year": 2024, "priority": 1, "notes": null }, "geometry": { "type": "Polygon", "coordinates": [ [ [ 546080.728835390182212, 8519892.409155340865254 ], [ 547228.285213005146943, 8520181.488242831081152 ], [ 547210.217770038754679, 8521119.626531479880214 ], [ 546141.501143557601608, 8523835.217959424480796 ], [ 545033.364641509600915, 8525687.952111069113016 ], [ 544884.44511159020476, 8525950.751281514763832 ], [ 544901.965056286542676, 8526174.130576394498348 ], [ 544908.535035547567531, 8526405.722345350310206 ], [ 544921.12749579816591, 8526425.979781406000257 ], [ 544945.217419755761512, 8526435.287252025678754 ], [ 544955.072388647357002, 8526467.042151788249612 ], [ 544950.692402473301627, 8526485.657093027606606 ], [ 544978.067316061467864, 8526531.646947855129838 ], [ 545095.779444490442984, 8526867.263388445600867 ], [ 545108.371904741041362, 8526911.610748458653688 ], [ 545133.009326970321126, 8526927.488198339939117 ], [ 545168.596714635030366, 8527007.970444288104773 ], [ 545148.886776851606555, 8527196.309849774464965 ], [ 544760.710502168396488, 8527176.873661138117313 ], [ 544362.131760325049981, 8526723.545092118903995 ], [ 544349.539300077711232, 8523549.971359834074974 ], [ 545120.416866719722748, 8520746.78020840883255 ], [ 546080.728835390182212, 8519892.409155340865254 ] ] ] } },
{ "type": "Feature", "properties": { "fix_id": 2300, "rgi_id": "RGI2000-v7.0-G-07-00842", "fix_type": "land_extension+tidewater_extension", "first_active_year": 2013, "last_active_year": 2024, "priority": 1, "notes": null }, "geometry": { "type": "Polygon", "coordinates": [ [ [ 489415.752704481186811, 8573350.414159385487437 ], [ 488460.915718526870478, 8573000.015265457332134 ], [ 488233.156437473546248, 8572903.655569626018405 ], [ 488119.276796946884133, 8572763.4960120562464 ], [ 487996.637184071994852, 8572588.296565091237426 ], [ 487900.277488241728861, 8572351.777311690151691 ], [ 487926.55740528635215, 8572080.218168895691633 ], [ 487979.117239375598729, 8571799.899053752422333 ], [ 488180.596603384299669, 8571589.65971739590168 ], [ 488268.196326866338495, 8571423.220242779701948 ], [ 488530.99549731251318, 8571212.980906423181295 ], [ 488732.474861321272328, 8571116.621210593730211 ], [ 488898.914335937181022, 8570950.181735977530479 ], [ 489117.913644642278086, 8570923.901818932965398 ], [ 489328.152980999206193, 8570788.122247535735369 ], [ 489363.192870392056648, 8570630.442745268344879 ], [ 489367.572856566170231, 8570490.283187696710229 ], [ 489393.852773610735312, 8570288.803823687136173 ], [ 489520.872372659738176, 8570131.124321419745684 ], [ 489678.551874927419703, 8569964.684846803545952 ], [ 489871.271266587951686, 8569903.365040367469192 ], [ 490085.890589118993375, 8569925.264971237629652 ], [ 490309.26988399826223, 8569934.024943584576249 ], [ 490445.049455395434052, 8570017.244680892676115 ], [ 490598.348971489001997, 8570161.784224638715386 ], [ 490777.928404627251439, 8570201.204100206494331 ], [ 491018.827644202800002, 8570065.424528809264302 ], [ 492210.183883558900561, 8569281.407003646716475 ], [ 493348.980288825579919, 8568650.688994575291872 ], [ 493664.339293361001182, 8568247.730266558006406 ], [ 494154.89774486044189, 8567774.691759753972292 ], [ 494461.496777047635987, 8567617.012257486581802 ], [ 494733.055919842037838, 8567590.732340442016721 ], [ 495065.934869073797017, 8567634.532202182337642 ], [ 495311.214094823575579, 8567695.852008620277047 ], [ 495661.612988751789089, 8567573.212395746260881 ], [ 495906.892214501567651, 8567441.812810523435473 ], [ 496266.051080777950119, 8567415.532893478870392 ], [ 497054.448592116474174, 8567398.012948783114552 ], [ 497474.927264830330387, 8567590.732340443879366 ], [ 497737.726435276505072, 8567748.411842711269855 ], [ 497930.445826937037054, 8567967.411151416599751 ], [ 498166.96508033858845, 8568247.730266559869051 ], [ 498491.084057222178672, 8568519.289409354329109 ], [ 498745.123255320126191, 8568747.048690406605601 ], [ 499016.682398114528041, 8568992.327916156500578 ], [ 499104.282121596625075, 8569377.766699478030205 ], [ 499095.522149248397909, 8569719.405621057376266 ], [ 499078.002204552001785, 8570209.964072557166219 ], [ 498894.042785239696968, 8570560.362966485321522 ], [ 498832.722978802223224, 8570770.602302841842175 ], [ 498841.48295115045039, 8571147.281113814562559 ], [ 498166.965080338530242, 8572452.516993699595332 ], [ 489415.752704481186811, 8573350.414159385487437 ] ] ] } },
{ "type": "Feature", "properties": { "fix_id": 321329, "rgi_id": "RGI2000-v7.0-G-07-00560", "fix_type": "land_extension", "first_active_year": 2013, "last_active_year": 2024, "priority": 1, "notes": null }, "geometry": { "type": "Polygon", "coordinates": [ [ [ 551164.797786980983801, 8657630.108121478930116 ], [ 551488.916763864574023, 8657603.828204434365034 ], [ 551637.836293784086592, 8657542.508397996425629 ], [ 551830.555685444618575, 8657551.268370345234871 ], [ 551935.675353622995317, 8657577.548287389799953 ], [ 552049.55499414971564, 8657647.628066174685955 ], [ 552093.354855890735053, 8657735.227789657190442 ], [ 552014.515104756923392, 8657840.347457835450768 ], [ 551874.355547185637988, 8657919.187208969146013 ], [ 551664.116210828651674, 8658015.546904800459743 ], [ 551488.916763864574023, 8658085.626683585345745 ], [ 551269.917455159476958, 8658138.186517674475908 ], [ 551103.477980543510057, 8658155.706462372094393 ], [ 550953.46345407795161, 8658122.582816928625107 ], [ 550754.174083156278357, 8658061.263010490685701 ], [ 550630.439473740407266, 8657989.266987755894661 ], [ 551164.797786980983801, 8657630.108121478930116 ] ] ] } },
{ "type": "Feature", "properties": { "fix_id": 796355, "rgi_id": "RGI2000-v7.0-G-07-01538", "fix_type": "land_extension", "first_active_year": 2019, "last_active_year": 2024, "priority": 1, "notes": null }, "geometry": { "type": "Polygon", "coordinates": [ [ [ 549666.842515438096598, 8645269.787138160318136 ], [ 549395.283372643752955, 8644901.868299536406994 ], [ 549316.443621509941295, 8644525.189488563686609 ], [ 549246.363842724240385, 8644174.790594635531306 ], [ 549150.004146893974394, 8643833.1516730543226 ], [ 549027.364534019143321, 8643561.592530259862542 ], [ 548878.445004099630751, 8643097.313995806500316 ], [ 548817.125197662157007, 8642606.755544306710362 ], [ 548563.08599956415128, 8641862.15789470821619 ], [ 548475.486276082112454, 8641581.83877956494689 ], [ 548431.686414341093041, 8641240.199857985600829 ], [ 548414.166469644755125, 8640907.320908753201365 ], [ 548729.525474180118181, 8640758.401378834620118 ], [ 549150.004146893974394, 8640933.600825797766447 ], [ 549281.403732117032632, 8641021.200549280270934 ], [ 549439.083234384772368, 8641222.67991328984499 ], [ 549544.202902563265525, 8641459.199166690930724 ], [ 549675.602487786323763, 8641660.67853070050478 ], [ 549754.442238920135424, 8641870.917867057025433 ], [ 549894.601796491420828, 8642370.236290903761983 ], [ 550052.281298759160563, 8642773.195018921047449 ], [ 550174.920911633991636, 8643079.794051108881831 ], [ 550201.200828678673133, 8643395.15305564366281 ], [ 549666.842515438096598, 8645269.787138160318136 ] ] ] } },
{ "type": "Feature", "properties": { "fix_id": 14941, "rgi_id": "RGI2000-v7.0-G-07-00308", "fix_type": "tidewater_extension", "first_active_year": 2013, "last_active_year": 2024, "priority": 1, "notes": null }, "geometry": { "type": "Polygon", "coordinates": [ [ [ 460595.443678884708788, 8724162.098106097429991 ], [ 460280.084674349287525, 8723189.741175446659327 ], [ 460218.764867911871988, 8722453.903498196974397 ], [ 461961.999365204770584, 8721954.585074348375201 ], [ 462048.49895905458834, 8722452.5293532256037 ], [ 461996.765505461604334, 8723249.418487068265676 ], [ 460595.443678884708788, 8724162.098106097429991 ] ] ] } },
{ "type": "Feature", "properties": { "fix_id": 616628, "rgi_id": "RGI2000-v7.0-G-07-00291", "fix_type": "tidewater_extension", "first_active_year": 2013, "last_active_year": 2024, "priority": 1, "notes": null }, "geometry": { "type": "Polygon", "coordinates": [ [ [ 432696.675658424210269, 8737202.970132917165756 ], [ 432669.370278042450082, 8737298.628647999837995 ], [ 432669.370278042450082, 8737298.628647999837995 ], [ 432622.661977977724746, 8737374.600149411708117 ], [ 432140.04225141875213, 8738037.620556516572833 ], [ 431702.043634008499794, 8739833.414887899532914 ], [ 431706.761528791859746, 8740058.309480989351869 ], [ 431748.854736244247761, 8740084.716594640165567 ], [ 431748.854736244247761, 8740084.716594640165567 ], [ 432363.147797162178904, 8740168.483830219134688 ], [ 434178.652066327631474, 8739993.284383255988359 ], [ 434494.011070862994529, 8737820.811240902170539 ], [ 432696.675658424210269, 8737202.970132917165756 ] ] ] } },
{ "type": "Feature", "properties": { "fix_id": 903583, "rgi_id": "RGI2000-v7.0-G-07-00281", "fix_type": "land_extension", "first_active_year": 2013, "last_active_year": 2024, "priority": 1, "notes": null }, "geometry": { "type": "Polygon", "coordinates": [ [ [ 434362.611485640052706, 8749274.47508617863059 ], [ 433968.412729970819782, 8749721.233675938099623 ], [ 433661.813697783625685, 8750150.472321 ], [ 433469.094306123093702, 8750316.911795616149902 ], [ 433293.894859158957843, 8750527.151131972670555 ], [ 433250.09499741793843, 8750711.110551284626126 ], [ 433328.934748551808298, 8750886.309998247772455 ], [ 433504.134195515885949, 8751048.369486691430211 ], [ 433736.273462743323762, 8751232.328906003385782 ], [ 434047.25248110468965, 8751403.148366793990135 ], [ 434345.091540943656582, 8751486.368104102090001 ], [ 434590.370766693435144, 8751547.687910540029407 ], [ 434743.670282787003089, 8751573.967827584594488 ], [ 434844.409964791382663, 8751639.66762019507587 ], [ 435137.869038456236012, 8751792.967136288061738 ], [ 435299.928526898089331, 8751814.867067160084844 ], [ 435746.687116656568833, 8751880.566859770566225 ], [ 436154.025830848142505, 8751849.906956551596522 ], [ 436355.505194856843445, 8751718.507371328771114 ], [ 436570.124517387885135, 8751473.228145578876138 ], [ 436714.664061133284122, 8751175.389085739850998 ], [ 436736.563992003793828, 8750995.809652602300048 ], [ 436653.344254695868585, 8750737.390468329191208 ], [ 436517.564683298580348, 8750058.492611343041062 ], [ 436684.004157914489042, 8749138.695514781400561 ], [ 434362.611485640052706, 8749274.47508617863059 ] ] ] } }
]
}
